 2007  5 3 2258  4.1 L  50.368   7.426  5.8  RLP  4 0.2 2.1LRLP                1
 OLDACT:UP  25-05-12 19:25 OP:fm   STATUS:               ID:20070503225600     3
 GAP=236   RLP  0.66       3.3     3.9 11.6 -0.7394E+01 -0.1188E+02 -0.2429E+01E
 GAP=236   BER  0.66       3.3     3.9 11.6 -0.7394E+01 -0.1189E+02 -0.2430E+01E
 ACTION:UPD 25-05-19 20:22 OP:fm   STATUS:               ID:20070503225600     I
 OLDACT:UP  25-04-28 23:48 OP:fm   STATUS:               ID:20070503225600     3
 OLDACT:ARG 25-04-28 16:57 OP:fm   STATUS:               ID:20070503225600     3
 2007-05-03-2256-00S.RLPBA_033                                                 6
 STAT SP IPHASW D HRMM SECON CODA AMPLIT PERI AZIMU VELO AIN AR TRES W  DIS CAZ7
 BGG  SZ IP       2258  7.70                             107    0.2410 19.0 199 
 BGG  SE IS       2258  9.93                             107    0.0110 19.0 199 
 BGG  SE  IAML    2258 10.30       554.0 0.10                          19.0 199 
 FSH  SZ IP       2258 10.43                              98   -0.3910 39.5 215 
 FACH SZ IP       2258 11.26                              98    0.3110 40.4  92 
 FACH SE IS       2258 15.72                              98   -0.2810 40.4  92 
 IMS  SZ IP       2258 19.74                              94    0.1210 92.5 158 
 IMS  SE IS       2258 31.08                              94   -0.0110 92.5 158 
                                                                                
 2007  615 2337 16.7 L  50.353   7.425  9.8  RLP  6 0.3 2.5LRLP                1
 OLDACT:UP  25-05-12 19:26 OP:fm   STATUS:               ID:20070615233400     3
 GAP=126   RLP  0.74       2.5     3.0  3.5 -0.3889E+01  0.2744E+00  0.8375E+00E
 GAP=127   BER  0.94       3.1     3.8  3.4 -0.5930E+01 -0.9061E+00  0.3433E+01E
 ACTION:UPD 25-05-19 20:22 OP:fm   STATUS:               ID:20070615233400     I
 OLDACT:UP  25-05-12 19:26 OP:fm   STATUS:               ID:20070615233400     3
 OLDACT:UP  25-04-28 23:52 OP:fm   STATUS:               ID:20070615233400     3
 OLDACT:ARG 25-04-28 16:57 OP:fm   STATUS:               ID:20070615233400     3
 2007-06-15-2334-00S.RLPBA_036                                                 6
 STAT SP IPHASW D HRMM SECON CODA AMPLIT PERI AZIMU VELO AIN AR TRES W  DIS CAZ7
 BGG  SZ IP       2337 20.30                             120    0.2310 17.5 201 
 BGG  SN IS       2337 22.63                             120    0.0710 17.5 201 
 BGG  SN  IAML    2337 23.05      1430.9 0.11                          17.5 201 
 KOE  SZ IP       2337 21.30                             113    0.3110 23.2  70 
 KOE  SE IS       2337 24.31                             113    0.1510 23.2  70 
 FSH  SZ IP       2337 22.95                             105   -0.3710 38.1 216 
 FACH SZ IP       2337 23.85                             104    0.1810 40.5  89 
 FACH SE IS       2337 28.29                             104   -0.5310 40.5  89 
 STB  SZ IP       2337 25.02                             101   -0.1210 49.4 303 
 PEB  SN IS       2337 56.16                              47    0.18 7  144 172 
                                                                                
 2007  620 0126 32.4 L  50.146   7.885  8.1  RLP  4 0.2 1.6LRLP                1
 OLDACT:UP  25-05-12 19:29 OP:fm   STATUS:               ID:20070620012600     3
 GAP=244   RLP  0.68       7.2     7.0 16.1 -0.4507E+02 -0.5254E+02  0.7505E+02E
 GAP=236   BER  0.81      11.7    13.8 16.9 -0.1550E+03  0.2020E+03 -0.1715E+03E
 ACTION:UPD 25-05-19 20:22 OP:fm   STATUS:               ID:20070620012600     I
 OLDACT:UP  25-05-12 19:27 OP:fm   STATUS:               ID:20070620012600     3
 OLDACT:UP  25-04-28 23:55 OP:fm   STATUS:               ID:20070620012600     3
 OLDACT:ARG 25-04-28 16:57 OP:fm   STATUS:               ID:20070620012600     3
 2007-06-20-0126-00S.RLPBA_033                                                 6
 STAT SP IPHASW D HRMM SECON CODA AMPLIT PERI AZIMU VELO AIN AR TRES W  DIS CAZ7
 FACH SZ IP        126 36.82                             108    0.0310 24.7  18 
 FACH SE IS        126 39.95                             108   -0.0610 24.7  18 
 BGG  SZ IP        126 39.59                             102    0.3810 39.7 280 
 BGG  SN IS        126 44.41                             102    0.2010 39.7 280 
 BGG  SN  IAML     126 44.60        60.4 0.10                          39.7 280 
 FSH  SZ IP        126 41.97                              98    0.0510 56.0 262 
 FSH  SN IS        126 48.48                              98   -0.4510 56.0 262 
 BIW  SZ IP        126 43.27                              97   -0.1610 65.2 357 
                                                                                
 2007  620 0153 43.3 L  50.127   7.906 12.5  RLP  5 0.3 1.5LRLP                1
 OLDACT:UP  25-05-12 19:32 OP:fm   STATUS:               ID:20070620015200     3
 GAP=167   RLP  0.91       3.9     4.3  6.0 -0.6856E+01 -0.1090E+02  0.1858E+02E
 GAP=167   BER  0.95      45.0    18.7 60.3 -0.8184E+03 -0.1096E+04  0.2706E+04E
 ACTION:UPD 25-05-19 20:22 OP:fm   STATUS:               ID:20070620015200     I
 OLDACT:UP  25-05-12 19:30 OP:fm   STATUS:               ID:20070620015200     3
 OLDACT:UP  25-04-28 23:57 OP:fm   STATUS:               ID:20070620015200     3
 OLDACT:ARG 25-04-28 16:57 OP:fm   STATUS:               ID:20070620015200     3
 2007-06-20-0152-00S.RLPBA_033                                                 6
 STAT SP IPHASW D HRMM SECON CODA AMPLIT PERI AZIMU VELO AIN AR TRES W  DIS CAZ7
 FACH SZ IP        153 48.33                             116    0.1210 26.3  14 
 FACH SE IS        153 51.46                             116   -0.3510 26.3  14 
 BGG  SZ IP        153 51.09                             107    0.5010 41.6 282 
 BGG  SN IS        153 56.00                             107    0.0310 41.6 282 
 BGG  SN  IAML     153 56.27        48.4 0.10                          41.6 282 
 FSH  SZ IP        153 53.47                             102    0.3110 57.3 265 
 FSH  SE IS        153 59.89                             102   -0.5410 57.3 265 
 IMS  SZ IP        153 53.41                             102   -0.0610 59.2 180 
 PEB  SZ IP        154  2.90                              47    0.40 9  119 188 
 PEB  SE IS        154 16.27                              47   -0.41 9  119 188 
                                                                                
 2007  620 0535 51.0 L  50.401   7.819 11.4  RLP  4 0.3 1.6LRLP                1
 OLDACT:UP  25-05-12 19:33 OP:fm   STATUS:               ID:20070620053400     3
 GAP=126   RLP  0.81       2.2     3.4  4.3 -0.1288E+01  0.2713E+01 -0.8685E+00E
 GAP=126   BER  0.81       2.2     3.4  4.3 -0.1290E+01  0.2710E+01 -0.8681E+00E
 ACTION:UPD 25-05-19 20:22 OP:fm   STATUS:               ID:20070620053400     I
 OLDACT:UP  25-04-29 00:00 OP:fm   STATUS:               ID:20070620053400     3
 OLDACT:ARG 25-04-28 16:57 OP:fm   STATUS:               ID:20070620053400     3
 2007-06-20-0534-00S.RLPBA_033                                                 6
 STAT SP IPHASW D HRMM SECON CODA AMPLIT PERI AZIMU VELO AIN AR TRES W  DIS CAZ7
 KOE  SZ IP        535 53.64                             150    0.3010 6.76 293 
 KOE  SN IS        535 55.16                             150    0.1210 6.76 293 
 KOE  SN  IAML     535 55.33       258.7 0.11                          6.76 293 
 FACH SZ IP        535 54.07                             131    0.0810 13.4 112 
 FACH SN IS        535 55.99                             131   -0.1810 13.4 112 
 BIW  SZ IP        535 57.80                             107    0.3210 36.7   2 
 BIW  SN IS        536  1.80                             107   -0.4510 36.7   2 
 BGG  SZ IP        535 58.35                             106    0.2610 40.6 238 
 BGG  SE IS        536  2.86                             106   -0.4510 40.6 238 
                                                                                
 2007  7 2 0030 16.6 L  50.394   7.337  3.7  RLP  5 0.3 2.6LRLP                1
 OLDACT:UP  25-05-12 19:36 OP:fm   STATUS:               ID:20070702002800     3
 GAP=186   RLP  0.83       2.8     3.0  8.8 -0.3526E+01  0.5835E+01 -0.5419E+01E
 GAP=186   BER  0.86       3.0     3.0  7.7 -0.3481E+01 -0.1774E+01  0.6410E+01E
 ACTION:UPD 25-05-19 20:22 OP:fm   STATUS:               ID:20070702002800     I
 OLDACT:UP  25-04-29 00:03 OP:fm   STATUS:               ID:20070702002800     3
 OLDACT:ARG 25-04-28 16:57 OP:fm   STATUS:               ID:20070702002800     3
 2007-07-02-0028-00S.RLPBA_036                                                 6
 STAT SP IPHASW D HRMM SECON CODA AMPLIT PERI AZIMU VELO AIN AR TRES W  DIS CAZ7
 BGG  SZ IP        030 20.61                             100    0.4210 20.9 180 
 BGG  SE IS        030 23.03                             100    0.2210 20.9 180 
 BGG  SE  IAML     030 23.18      1539.4 0.16                          20.9 180 
 KOE  SZ IP        030 21.58                              98    0.1410 28.2  83 
 KOE  SN IS        030 24.65                              98   -0.3510 28.2  83 
 FSH  SZ IP        030 23.23                              95    0.0410 38.9 205 
 FSH  SE IS        030 27.48                              95   -0.5510 38.9 205 
 BLI  SZ IP        030 29.84                              93    0.3210 76.9 257 
 BLI  SE IS        030 38.82                              93   -0.2310 76.9 257 
 PEB  SZ IP        030 40.54                              47   -0.03 7  150 170 
                                                                                
 2007  8 3 0258 10.3 L  50.369   7.383  5.8  RLP  4 0.2 3.7LRLP                1
 OLDACT:UP  25-05-12 19:40 OP:fm   STATUS:               ID:20070803025600     3
 GAP=133   RLP  0.55       1.7     2.2 12.5 -0.1001E+01  0.1258E+02 -0.1207E+02E
 GAP=134   BER  0.40       1.0     1.4  4.0  0.6538E-01  0.3563E-01  0.1218E+00E
 ACTION:UPD 25-05-19 20:22 OP:fm   STATUS:               ID:20070803025600     I
 OLDACT:UP  25-05-12 19:37 OP:fm   STATUS:               ID:20070803025600     3
 OLDACT:UP  25-04-29 00:05 OP:fm   STATUS:               ID:20070803025600     3
 OLDACT:ARG 25-04-28 16:57 OP:fm   STATUS:               ID:20070803025600     3
 2007-08-03-0256-00S.RLPBA_036                                                 6
 STAT SP IPHASW D HRMM SECON CODA AMPLIT PERI AZIMU VELO AIN AR TRES W  DIS CAZ7
 BGG  SZ IP        258 13.73                             108    0.1610 18.4 190 
 BGG  SE IS        258 16.01                             108    0.0510 18.4 190 
 BGG  SE  IAML     258 16.21     22045.4 0.19                          18.4 190 
 KOE  SZ IP        258 14.86                             103    0.1010 25.5  76 
 KOE  SE IS        258 17.91                             103   -0.1310 25.5  76 
 FSH  SZ IP        258 16.48                              99   -0.3010 38.0 211 
 STB  SZ IP        258 18.36                              97    0.2810 46.0 303 
 STB  SN IS        258 23.66                              97   -0.1610 46.0 303 
                                                                                
 2007  8 3 0329 18.2 L  50.369   7.369  6.9  RLP  4 0.3 1.9LRLP                1
 OLDACT:UP  25-05-12 19:40 OP:fm   STATUS:               ID:20070803032600     3
 GAP=226   RLP  0.77       5.3     7.5  3.7 -0.3517E+02 -0.1723E+01  0.1762E+01E
 GAP=224   BER  0.87       5.8     8.3  3.3 -0.4242E+02 -0.7860E+01  0.6205E+01E
 ACTION:UPD 25-05-19 20:22 OP:fm   STATUS:               ID:20070803032600     I
 OLDACT:UP  25-05-12 19:38 OP:fm   STATUS:               ID:20070803032600     3
 OLDACT:UP  25-04-29 00:09 OP:fm   STATUS:               ID:20070803032600     3
 OLDACT:ARG 25-04-28 16:57 OP:fm   STATUS:               ID:20070803032600     3
 2007-08-03-0326-00S.RLPBA_036                                                 6
 STAT SP IPHASW D HRMM SECON CODA AMPLIT PERI AZIMU VELO AIN AR TRES W  DIS CAZ7
 BGG  SZ IP        329 21.84                             111    0.3510 18.3 187 
 BGG  SN IS        329 24.11                             111    0.2010 18.3 187 
 BGG  SN  IAML     329 24.24       366.4 0.09                          18.3 187 
 KOE  SZ IP        329 22.93                             105    0.0910 26.5  76 
 KOE  SN IS        329 26.03                             105   -0.2410 26.5  76 
 FSH  SZ IP        329 24.55                             101   -0.0610 37.5 210 
 FSH  SE IS        329 28.88                             101   -0.4610 37.5 210 
 PEB  SZ IP        329 41.96                              47    0.56 7  147 171 
 PEB  SE IS        329 58.24                              47   -0.31 7  147 171 
                                                                                
 2007  911 1357 25.7 L  49.736   7.330  6.5  RLP  4 0.5                        1
 OLDACT:UP  25-04-29 00:12 OP:fm   STATUS:               ID:20070911135712     3
 GAP=155   RLP  1.40       7.2     9.1 62.6  0.5307E+02  0.3709E+03  0.2370E+03E
 GAP=155   BER  1.40       7.2     9.1 63.0  0.5303E+02  0.3729E+03  0.2383E+03E
 ACTION:UPD 25-05-19 20:22 OP:fm   STATUS:               ID:20070911135712     I
 OLDACT:ARG 25-04-28 16:57 OP:fm   STATUS:               ID:20070911135712     3
 2007-09-11-1357-12S.RLPBA_024                                                 6
 STAT SP IPHASW D HRMM SECON CODA AMPLIT PERI AZIMU VELO AIN AR TRES W  DIS CAZ7
 RIVT SZ IP       1357 32.15                              99   -0.4510 40.9 266 
 FSH  SZ IP       1357 32.07                              99   -0.5610 41.1 337 
 FSH  SN IS       1357 37.58                              99   -0.2210 41.1 337 
 IMS  SZ IP       1357 32.89                              99   -0.2510 44.1 111 
 IMS  SE IS       1357 39.19                              99    0.5210 44.1 111 
 BLI  SZ IP       1357 41.13                              94   -0.1110 93.0 307 
 BLI  SE IS       1357 53.84                              94    1.0710 93.0 307 
                                                                                
 2007  915 0430 40.1 L  50.309   7.379 10.8  RLP  4 0.2 1.6LRLP                1
 OLDACT:UP  25-05-12 19:42 OP:fm   STATUS:               ID:20070915042800     3
 GAP=154   RLP  0.62       3.0     3.2  6.5 -0.7134E+01  0.1280E+02 -0.1368E+02E
 GAP=154   BER  0.62       3.0     3.2  6.5 -0.7108E+01  0.1281E+02 -0.1369E+02E
 ACTION:UPD 25-05-19 20:22 OP:fm   STATUS:               ID:20070915042800     I
 OLDACT:UP  25-04-29 00:15 OP:fm   STATUS:               ID:20070915042800     3
 OLDACT:ARG 25-04-28 16:57 OP:fm   STATUS:               ID:20070915042800     3
 2007-09-15-0428-00S.RLPBA_036                                                 6
 STAT SP IPHASW D HRMM SECON CODA AMPLIT PERI AZIMU VELO AIN AR TRES W  DIS CAZ7
 BGG  SZ IP        430 43.04                             133    0.2710 11.8 195 
 BGG  SN IS        430 44.83                             133    0.0710 11.8 195 
 BGG  SN  IAML     430 44.94       212.3 0.08                          11.8 195 
 KOE  SZ IP        430 45.38                             111    0.1910 28.2  63 
 KOE  SE IS        430 48.70                             111   -0.2710 28.2  63 
 FSH  SZ IP        430 45.95                             109    0.1610 32.2 217 
 FSH  SE IS        430 49.62                             109   -0.4010 32.2 217 
 HIL  SZ IP        430 48.57                             102   -0.0810 49.9 268 
 HIL  SE IS        430 55.03                             102    0.0410 49.9 268 
                                                                                
 2007  920 0652 37.1 L  49.599   7.989 29.4  RLP  3 0.1                        1
 GAP=200   RLP  0.37       1.9     9.0611.3 -0.8727E+01  0.2451E+04 -0.4571E+03E
 OLDACT:ARG 25-04-28 16:57 OP:fm   STATUS:               ID:20070920065232     3
 ACTION:UP  25-05-19 21:34 OP:fm   STATUS:               ID:20070920065232     I
 OLDACT:UPD 25-05-19 20:22 OP:fm   STATUS:               ID:20070920065232     3
 2007-09-20-0652-32S.RLPBA_024                                                 6
 STAT SP IPHASW D HRMM SECON CODA AMPLIT PERI AZIMU VELO AIN AR TRES W  DIS CAZ7
 PEB  SZ IP        652 47.84                              91   -0.0310 63.2 200 
 FSH  SZ IP        652 50.26                              90    0.0210 82.6 310 
 FACH SZ IP        652 50.50                              90    0.0910 84.2   0 
 FACH SN IS        653  0.17                              90   -0.0810 84.2   0 
                                                                                
 2007  928 0026 38.3 L  50.011   7.816  9.2  RLP  4 0.2 1.4LRLP                1
 OLDACT:UP  25-05-12 19:47 OP:fm   STATUS:               ID:20070928002400     3
 GAP=230   RLP  0.58       3.1     6.0 14.5  0.1610E+02 -0.8944E+01 -0.1010E+01E
 GAP=174   BER  0.64       1.3     3.6  6.4  0.2569E+00  0.3517E+01 -0.2426E+00E
 ACTION:UPD 25-05-19 20:22 OP:fm   STATUS:               ID:20070928002400     I
 OLDACT:UP  25-05-12 19:44 OP:fm   STATUS:               ID:20070928002400     3
 OLDACT:UP  25-04-29 00:19 OP:fm   STATUS:               ID:20070928002400     3
 OLDACT:ARG 25-04-28 16:57 OP:fm   STATUS:               ID:20070928002400     3
 2007-09-28-0024-00S.RLPBA_039                                                 6
 STAT SP IPHASW D HRMM SECON CODA AMPLIT PERI AZIMU VELO AIN AR TRES W  DIS CAZ7
 BGG  SZ IP        026 45.24                             103    0.0110 40.6 303 
 BGG  SN IS        026 50.23                             103   -0.1410 40.6 303 
 BGG  SN  IAML     026 50.50        38.9 0.08                          40.6 303 
 IMS  SZ IP        026 46.08                             101   -0.1810 46.7 172 
 IMS  SE IS        026 52.29                             101    0.1210 46.7 172 
 FSH  SZ IP        026 47.40                             100    0.4110 51.2 278 
 FSH  SN IS        026 53.42                             100   -0.0110 51.2 278 
 RIVT SZ IP        026 51.99                              96   -0.2110 82.8 246 
                                                                                
 2007 10 1 1125 52.1 L  50.031   7.464  9.1  RLP  5 0.2 1.5LRLP                1
 OLDACT:UP  25-05-12 19:50 OP:fm   STATUS:               ID:20071001112400     3
 GAP=189   RLP  0.68       4.0     5.7 12.6 -0.1525E+02 -0.5229E+02  0.3721E+02E
 GAP=250   BER  0.81       6.4    16.6 21.6 -0.8424E+02  0.3076E+03 -0.1187E+03E
 ACTION:UPD 25-05-19 20:22 OP:fm   STATUS:               ID:20071001112400     I
 OLDACT:UP  25-04-29 00:21 OP:fm   STATUS:               ID:20071001112400     3
 OLDACT:ARG 25-04-28 16:57 OP:fm   STATUS:               ID:20071001112400     3
 2007-10-01-1124-00S.RLPBA_036                                                 6
 STAT SP IPHASW D HRMM SECON CODA AMPLIT PERI AZIMU VELO AIN AR TRES W  DIS CAZ7
 BGG  SZ IP       1125 56.33                             113    0.2810 21.5 335 
 BGG  SE IS       1125 58.75                             113   -0.1910 21.5 335 
 BGG  SE  IAML    1125 59.06       110.1 0.14                          21.5 335 
 FSH  SZ IP       1125 57.22                             110    0.4610 25.9 281 
 FSH  SE IS       1126  0.05                             110   -0.1310 25.9 281 
 FACH SZ IP       1126  0.94                             100   -0.0810 52.4  46 
 RIVT SZ IP       1126  2.35                              98   -0.2410 61.8 235 
 STB  SZ IP       1126  4.95                              97   -0.1110 76.8 325 
                                                                                
