 2005  412 2149 29.5 L  50.381   7.412  2.2  RLP  6 0.3 1.7LRLP                1
 OLDACT:UP  25-05-12 18:23 OP:fm   STATUS:               ID:20050412214800     3
 GAP=139   RLP  0.78       1.8     3.3  8.9 -0.2454E+01  0.1448E+01 -0.4965E+00E
 GAP=196   BER  0.66       1.7     4.0  6.1 -0.4177E+01 -0.7993E+01  0.2858E+01E
 ACTION:UPD 25-05-19 20:22 OP:fm   STATUS:               ID:20050412214800     I
 OLDACT:UP  25-04-28 22:19 OP:fm   STATUS:               ID:20050412214800     3
 OLDACT:ARG 25-04-28 16:56 OP:fm   STATUS:               ID:20050412214800     3
 2005-04-12-2148-00S.RLPBA_030                                                 6
 STAT SP IPHASW D HRMM SECON CODA AMPLIT PERI AZIMU VELO AIN AR TRES W  DIS CAZ7
 BGG  SZ IP       2149 33.10                              96    0.1910 20.2 195 
 BGG  SN IS       2149 35.34                              96   -0.0910 20.2 195 
 BGG  SN  IAML    2149 35.83       216.7 0.14                          20.2 195 
 FACH SZ IP       2149 36.75                              93    0.3010 41.5  94 
 FACH SN IS       2149 41.16                              93   -0.4310 41.5  94 
 BIW  SZ IP       2149 38.07                              93    0.3110 49.2  38 
 BIW  SN IS       2149 43.72                              93   -0.1510 49.2  38 
 BLI  SZ IP       2149 42.82                              92   -0.3810 81.8 259 
 IMS  SZ IP       2149 45.72                              91    0.4410 94.3 158 
 IMS  SE IS       2149 56.77                              91   -0.1810 94.3 158 
 PEB  SZ IP       2149 53.27                              47   -0.07 7  148 172 
                                                                                
 2005  7 7 0101  1.7 L  50.409   7.872 12.5  RLP  5 0.3 1.5LRLP                1
 OLDACT:UP  25-05-12 18:26 OP:fm   STATUS:               ID:20050707010000     3
 GAP=128   RLP  0.83       2.1     4.4  3.5 -0.5993E+00  0.6744E+01  0.8470E+00E
 GAP=123   BER  0.46       1.1     1.8  4.6  0.6975E-02  0.4263E-02  0.4797E-01E
 ACTION:UPD 25-05-19 20:22 OP:fm   STATUS:               ID:20050707010000     I
 OLDACT:UP  25-04-28 22:22 OP:fm   STATUS:               ID:20050707010000     3
 OLDACT:ARG 25-04-28 16:56 OP:fm   STATUS:               ID:20050707010000     3
 2005-07-07-0100-00S.RLPBA_030                                                 6
 STAT SP IPHASW D HRMM SECON CODA AMPLIT PERI AZIMU VELO AIN AR TRES W  DIS CAZ7
 FACH SZ IP        1 1  4.48                             140   -0.0010 10.4 124 
 FACH SE IS        1 1  6.34                             140   -0.1710 10.4 124 
 BIW  SZ IP        1 1  8.54                             109    0.4210 35.9 356 
 BIW  SN IS        1 1 12.56                             109   -0.2810 35.9 356 
 BGG  SZ IP        1 1  9.85                             106    0.4210 44.3 240 
 BGG  SE IS        1 1 14.92                             106   -0.2010 44.3 240 
 BGG  SE  IAML     1 1 15.05        45.9 0.10                          44.3 240 
 IMS  SZ IP        1 1 17.27                              68    0.2310 90.7 179 
 RIVT SZ IP        1 1 19.47                              47   -0.48 9  111 226 
                                                                                
 2005  820 0708 53.3 L  50.076   8.253  5.8  RLP  4 0.5 1.9LRLP                1
 OLDACT:UP  25-05-12 18:33 OP:fm   STATUS:               ID:20050820070800     3
 GAP=231   RLP  1.15       7.4     9.6  9.5 -0.1072E+01 -0.1372E+02  0.6243E+02E
 GAP=215   BER  1.42       5.4     9.5713.4 -0.2173E+02  0.3453E+04  0.4275E+03E
 ACTION:UPD 25-05-19 20:22 OP:fm   STATUS:               ID:20050820070800     I
 OLDACT:UP  25-04-28 22:26 OP:fm   STATUS:               ID:20050820070800     3
 OLDACT:ARG 25-04-28 16:56 OP:fm   STATUS:               ID:20050820070800     3
 2005-08-20-0708-00S.RLPBA_033                                                 6
 STAT SP IPHASW D HRMM SECON CODA AMPLIT PERI AZIMU VELO AIN AR TRES W  DIS CAZ7
 FACH SZ IP        7 8 59.59                              99    0.1110 36.3 329 
 FACH SN IS        7 9  4.03                              99   -0.0010 36.3 329 
 BGG  SZ IP        7 9  5.22                              95    0.6410 67.1 283 
 BGG  SE IS        7 9 12.60                              95   -0.3010 67.1 283 
 BGG  SE  IAML     7 9 17.00        61.2 0.18                          67.1 283 
 RIVT SZ IP        7 9 11.99                              93   -0.51 9  115 250 
 RIVT SN IS        7 9 26.77                              93    0.10 9  115 250 
 PEB  SZ IP        7 9 12.52                              93   -0.79 9  119 200 
 PEB  SN IS        7 9 28.73                              93    0.64 9  119 200 
                                                                                
 2005 1021 2051 53.6 L  50.201   7.698  7.9  RLP  5 0.3 2.1LRLP                1
 OLDACT:UP  25-05-12 18:36 OP:fm   STATUS:               ID:20051021205000     3
 GAP=138   RLP  0.70       2.0     2.2  5.5 -0.2263E+00 -0.2931E+00  0.4639E+01E
 GAP=137   BER  0.68       1.8     2.1  5.9 -0.2708E+00  0.1016E+01  0.2263E+00E
 ACTION:UPD 25-05-19 20:22 OP:fm   STATUS:               ID:20051021205000     I
 OLDACT:UP  25-04-28 22:31 OP:fm   STATUS:               ID:20051021205000     3
 OLDACT:ARG 25-04-28 16:56 OP:fm   STATUS:               ID:20051021205000     3
 2005-10-21-2050-00S.RLPBA_030                                                 6
 STAT SP IPHASW D HRMM SECON CODA AMPLIT PERI AZIMU VELO AIN AR TRES W  DIS CAZ7
 BGG  SZ IP       2051 58.40                             107    0.2910 25.7 271 
 BGG  SN IS       2052  1.23                             107   -0.2110 25.7 271 
 BGG  SN  IAML    2052  1.73       401.1 0.15                          25.7 271 
 FACH SZ IP       2051 58.51                             106    0.1510 27.3  51 
 FACH SE IS       2052  1.67                             106   -0.2110 27.3  51 
 IMS  SZ IP       2052  5.73                              97    0.5010 69.0 168 
 IMS  SN IS       2052 13.53                              97   -0.3110 69.0 168 
 BLI  SZ IP       2052 10.32                              95   -0.1710  101 273 
 BLI  SE IS       2052 23.03                              95    0.0510  101 273 
 PEB  SZ IP       2052 14.04                              47   -0.13 8  126 180 
                                                                                
 2005 1110 0543 12.4 L  49.997   7.542 18.3  RLP  4 0.3 2.6LRLP                1
 OLDACT:UP  25-05-12 18:39 OP:fm   STATUS:               ID:20051110054200     3
 GAP=137   RLP  0.78       2.1     4.0  3.7  0.3344E+01  0.7664E+01  0.2528E+01E
 GAP=137   BER  0.80       2.2     3.2  8.8  0.1641E+01 -0.2388E+01  0.7630E+01E
 ACTION:UPD 25-05-19 20:22 OP:fm   STATUS:               ID:20051110054200     I
 OLDACT:UP  25-04-28 22:34 OP:fm   STATUS:               ID:20051110054200     3
 OLDACT:ARG 25-04-28 16:56 OP:fm   STATUS:               ID:20051110054200     3
 2005-11-10-0542-00S.RLPBA_027                                                 6
 STAT SP IPHASW D HRMM SECON CODA AMPLIT PERI AZIMU VELO AIN AR TRES W  DIS CAZ7
 BGG  SZ IP        543 18.12                             118    0.2910 27.5 328 
 BGG  SE IS        543 21.62                             118   -0.2610 27.5 328 
 BGG  SN  IAML     543 21.77       685.0 0.16                          27.5 328 
 BGG  SE  IAML     543 21.94      1148.4 0.12                          27.5 328 
 FACH SZ IP        543 21.67                              99    0.3310 51.3  39 
 FACH SE IS        543 27.73                              99   -0.2710 51.3  39 
 IMS  SZ IP        543 21.78                              99    0.3410 51.7 150 
 IMS  SE IS        543 27.79                              99   -0.3810 51.7 150 
 BLI  SZ IP        543 27.97                              52    0.1610 93.5 287 
 BLI  SE IS        543 39.02                              52   -0.2210 93.5 287 
                                                                                
 2005 1110 0616 41.2 L  50.002   7.544 18.8  RLP  4 0.2 2.0LRLP                1
 OLDACT:UP  25-05-12 18:42 OP:fm   STATUS:               ID:20051110061400     3
 GAP=136   RLP  0.61       1.6     3.1  2.8  0.2005E+01  0.4562E+01  0.1490E+01E
 GAP=137   BER  0.65       1.7     2.4  6.5  0.7297E+00 -0.5819E+00 -0.3574E+00E
 ACTION:UPD 25-05-19 20:22 OP:fm   STATUS:               ID:20051110061400     I
 OLDACT:UP  25-04-28 22:39 OP:fm   STATUS:               ID:20051110061400     3
 OLDACT:ARG 25-04-28 16:56 OP:fm   STATUS:               ID:20051110061400     3
 2005-11-10-0614-00S.RLPBA_027                                                 6
 STAT SP IPHASW D HRMM SECON CODA AMPLIT PERI AZIMU VELO AIN AR TRES W  DIS CAZ7
 BGG  SZ IP        616 46.85                             120    0.2010 27.1 327 
 BGG  SE IS        616 50.52                             120   -0.1710 27.1 327 
 BGG  SE  IAML     616 50.73       230.2 0.13                          27.1 327 
 FACH SZ IP        616 50.43                             101    0.3010 50.8  39 
 FACH SE IS        616 56.49                             101   -0.2410 50.8  39 
 IMS  SZ IP        616 50.52                             100    0.1510 52.2 150 
 IMS  SN IS        616 56.93                             100   -0.2210 52.2 150 
 BLI  SZ IP        616 56.78                              52    0.1910 93.4 286 
 BLI  SE IS        617  7.78                              52   -0.2110 93.4 286 
                                                                                
 2005 1129 2011 34.0 L  50.329   7.463  8.1  RLP  4 0.3 2.0LRLP                1
 OLDACT:UP  25-05-12 18:43 OP:fm   STATUS:               ID:20051129201000     3
 GAP=141   RLP  0.79       2.1     2.8  8.9  0.1748E+01 -0.8656E+01 -0.6663E+01E
 GAP=141   BER  0.79       2.1     2.8  8.9  0.1748E+01 -0.8655E+01 -0.6662E+01E
 ACTION:UPD 25-05-19 20:22 OP:fm   STATUS:               ID:20051129201000     I
 OLDACT:UP  25-04-28 22:42 OP:fm   STATUS:               ID:20051129201000     3
 OLDACT:ARG 25-04-28 16:56 OP:fm   STATUS:               ID:20051129201000     3
 2005-11-29-2010-00S.RLPBA_027                                                 6
 STAT SP IPHASW D HRMM SECON CODA AMPLIT PERI AZIMU VELO AIN AR TRES W  DIS CAZ7
 BGG  SZ IP       2011 37.28                             117    0.2110 16.3 213 
 BGG  SE IS       2011 39.37                             117    0.0310 16.3 213 
 BGG  SE  IAML    2011 39.40       425.6 0.12                          16.3 213 
 FACH SZ IP       2011 40.82                             102    0.3310 37.9  85 
 FACH SN IS       2011 45.07                             102   -0.2210 37.9  85 
 STB  SZ IP       2011 43.44                              99    0.4310 53.2 304 
 STB  SN IS       2011 49.18                              99   -0.4910 53.2 304 
 IMS  SZ IP       2011 48.66                              95   -0.0610 87.6 159 
 IMS  SE IS       2011 59.37                              95   -0.2310 87.6 159 
                                                                                
 2006  3 7 2126 45.5 L  50.397   7.651  2.7  RLP  5 0.2 2.1LRLP                1
 OLDACT:UP  25-05-12 18:47 OP:fm   STATUS:               ID:20060307212600     3
 GAP=153   RLP  0.51       2.0     2.2  3.3 -0.2019E+01 -0.3828E+00  0.1989E+01E
 GAP=153   BER  0.52       2.0     2.3  2.6 -0.2053E+01 -0.5524E+00  0.2185E+01E
 ACTION:UPD 25-05-19 20:22 OP:fm   STATUS:               ID:20060307212600     I
 OLDACT:UP  25-04-28 22:49 OP:fm   STATUS:               ID:20060307212600     3
 OLDACT:ARG 25-04-28 16:56 OP:fm   STATUS:               ID:20060307212600     3
 2006-03-07-2126-00S.RLPBA_030                                                 6
 STAT SP IPHASW D HRMM SECON CODA AMPLIT PERI AZIMU VELO AIN AR TRES W  DIS CAZ7
 FACH SZ IP       2126 49.98                              96    0.2710 24.8 100 
 FACH SN IS       2126 52.69                              96   -0.1110 24.8 100 
 BGG  SZ IP       2126 50.98                              95    0.2710 30.8 227 
 BGG  SE IS       2126 54.38                              95   -0.1510 30.8 227 
 BGG  SE  IAML    2126 55.13       310.8 0.12                          30.8 227 
 BIW  SZ IP       2126 52.01                              94   -0.1510 39.4  20 
 IMS  SZ IP       2127  0.61                              92   -0.1610 91.1 169 
 PEB  SZ IP       2127  9.47                              47    0.11 7  148 179 
 PEB  SE IS       2127 26.91                              47   -0.07 7  148 179 
                                                                                
 2006  328 1502 10.6 L  50.386   7.597 16.3  RLP  4 0.5 2.3LRLP                1
 OLDACT:UP  25-05-12 18:48 OP:fm   STATUS:               ID:20060328150000     3
 GAP=199   RLP  1.25       8.1    15.7 23.9 -0.1149E+03  0.2615E+03 -0.1424E+03E
 GAP=196   BER  1.24       8.0    15.6 23.7 -0.1126E+03  0.2563E+03 -0.1395E+03E
 ACTION:UPD 25-05-19 20:22 OP:fm   STATUS:               ID:20060328150000     I
 OLDACT:UP  25-04-28 22:55 OP:fm   STATUS:               ID:20060328150000     3
 OLDACT:ARG 25-04-28 16:56 OP:fm   STATUS:               ID:20060328150000     3
 2006-03-28-1500-00S.RLPBA_027                                                 6
 STAT SP IPHASW D HRMM SECON CODA AMPLIT PERI AZIMU VELO AIN AR TRES W  DIS CAZ7
 BGG  SZ IP       15 2 16.78                             113    0.8810 27.3 223 
 BGG  SE IS       15 2 19.21                             113   -0.6310 27.3 223 
 BGG  SE  IAML    15 2 20.06       494.2 0.11                          27.3 223 
 BIW  SZ IP       15 2 17.95                              96   -0.1710 41.9  24 
 BIW  SE IS       15 2 23.60                              96   -0.0910 41.9  24 
 STB  SZ IP       15 2 21.01                              91    0.3410 58.5 294 
 BLI  SZ IP       15 2 26.00                              90   -0.3310 94.8 260 
                                                                                
 2006  615 1926 26.2 L  49.500   7.112 15.7  RLP  4 0.7                        1
 OLDACT:UP  25-05-12 18:50 OP:fm   STATUS:               ID:20060615192608     3
 GAP=174   RLP  1.86       7.9    19.4 14.1  0.1049E+03 -0.2368E+03 -0.5316E+02E
 GAP=183   BER  1.97      12.2    34.5 58.0  0.3496E+03 -0.1886E+04 -0.5076E+03E
 ACTION:UPD 25-05-19 20:22 OP:fm   STATUS:               ID:20060615192608     I
 OLDACT:UP  25-04-28 23:01 OP:fm   STATUS:               ID:20060615192608     3
 OLDACT:ARG 25-04-28 16:56 OP:fm   STATUS:               ID:20060615192608     3
 2006-06-15-1926-08S.RLPBA_018                                                 6
 STAT SP IPHASW D HRMM SECON CODA AMPLIT PERI AZIMU VELO AIN AR TRES W  DIS CAZ7
 DUP  SZ IP       1926 31.76                             122    0.4610 25.6 247 
 DUP  SN IS       1926 34.77                             122   -0.2710 25.6 247 
 RIVT SZ IP       1926 33.36                             115    0.8210 34.1 313 
 RIVT SE IS       1926 36.75                             115   -0.4510 34.1 313 
 PEB  SZ IP       1926 35.86                              68   -1.3610 64.1 139 
 PEB  SN IS       1926 46.15                              68    0.8010 64.1 139 
 BLI  SZ IP       1926 42.84                              47    0.0010  101 324 
                                                                                
 2006  615 1955 55.0 L  49.489   7.065 22.8  RLP  4 0.9                        1
 OLDACT:UP  25-05-12 18:51 OP:fm   STATUS:               ID:20060615195536     3
 GAP=169   RLP  2.40      12.2    19.2 11.5  0.1921E+03 -0.1432E+03 -0.9689E+02E
 GAP=169   BER  2.40      12.2    19.2 11.5  0.1920E+03 -0.1433E+03 -0.9692E+02E
 ACTION:UPD 25-05-19 20:22 OP:fm   STATUS:               ID:20060615195536     I
 OLDACT:UP  25-04-28 23:03 OP:fm   STATUS:               ID:20060615195536     3
 OLDACT:ARG 25-04-28 16:56 OP:fm   STATUS:               ID:20060615195536     3
 2006-06-15-1955-36S.RLPBA_018                                                 6
 STAT SP IPHASW D HRMM SECON CODA AMPLIT PERI AZIMU VELO AIN AR TRES W  DIS CAZ7
 DUP  SZ IP       1956  0.90                             132    0.6910 22.0 247 
 DUP  SE IS       1956  3.64                             132   -0.4210 22.0 247 
 RIVT SZ IP       1956  2.40                             119    0.8810 32.6 318 
 RIVT SN IS       1956  5.77                             119   -0.5710 32.6 318 
 PEB  SZ IP       1956  4.57                              97   -1.6910 65.5 136 
 PEB  SE IS       1956 15.40                              97    0.8110 65.5 136 
 BLI  SZ IP       1956 11.87                              54    1.0510 99.8 326 
 BLI  SE IS       1956 21.80                              54   -0.7310 99.8 326 
                                                                                
 2006  617 0456 41.1 L  50.295   7.292 11.1  RLP  4 0.2 2.0LRLP                1
 OLDACT:UP  25-05-12 18:52 OP:fm   STATUS:               ID:20060617045400     3
 GAP=206   RLP  0.51       1.7     3.8  2.4  0.4247E+01  0.5176E+01  0.1913E+01E
 GAP=203   BER  0.52       1.5     4.1  4.2  0.3136E+01  0.1184E+02  0.1289E+01E
 ACTION:UPD 25-05-19 20:22 OP:fm   STATUS:               ID:20060617045400     I
 OLDACT:UP  25-04-28 23:05 OP:fm   STATUS:               ID:20060617045400     3
 OLDACT:ARG 25-04-28 16:56 OP:fm   STATUS:               ID:20060617045400     3
 2006-06-17-0454-00S.RLPBA_027                                                 6
 STAT SP IPHASW D HRMM SECON CODA AMPLIT PERI AZIMU VELO AIN AR TRES W  DIS CAZ7
 BGG  SZ IP        456 43.47                             137   -0.1810 10.4 162 
 BGG  SE IS        456 45.62                             137    0.0710 10.4 162 
 BGG  SE  IAML     456 45.87       597.5 0.12                          10.4 162 
 STB  SZ IP        456 49.17                             104    0.1110 46.3 316 
 STB  SE IS        456 54.75                             104   -0.2010 46.3 316 
 BLI  SZ IP        456 53.50                              99    0.2210 71.9 265 
 BLI  SE IS        457  2.30                              99   -0.0010 71.9 265 
 DUP  SZ IP        456 58.87                              68    0.2110  105 201 
 DUP  SN IS        457 11.42                              68   -0.2310  105 201 
                                                                                
