 2001  126 1624 12.0 L  50.069   8.197 11.3  RLP  6 0.3 1.7LRLP                1
 OLDACT:UP  25-05-12 14:54 OP:fm   STATUS:               ID:20010126162336     3
 GAP=152   RLP  0.81       1.8     5.3  3.0  0.1784E+01  0.4877E+01  0.2957E+01E
 GAP=151   BER  0.65       1.5     4.7  2.4 -0.1458E-01  0.4207E+01  0.1611E+01E
 ACTION:UPD 25-05-19 20:22 OP:fm   STATUS:               ID:20010126162336     I
 OLDACT:UP  25-05-12 14:53 OP:fm   STATUS:               ID:20010126162336     3
 OLDACT:UP  25-04-28 17:24 OP:fm   STATUS:               ID:20010126162336     3
 OLDACT:ARG 25-04-28 16:54 OP:fm   STATUS:               ID:20010126162336     3
 2001-01-26-1623-36S.RLPBA_030                                                 6
 STAT SP IPHASW D HRMM SECON CODA AMPLIT PERI AZIMU VELO AIN AR TRES W  DIS CAZ7
 TNS  HZ IP       1624 16.59                             115   -0.0810 24.7  46 
 FACH SZ IP       1624 18.36                             108    0.1610 35.1 336 
 FACH SE IS       1624 22.27                             108   -0.4910 35.1 336 
 KOE  SZ IP       1624 21.59                             103    0.6710 51.7 320 
 KOE  SN IS       1624 27.31                             103   -0.1810 51.7 320 
 KOE  SN  IAML    1624 27.47        62.5 0.15                          51.7 320 
 IMS  SZ IP       1624 21.88                             101    0.1110 57.0 202 
 IMS  SE IS       1624 28.84                             101   -0.1310 57.0 202 
 RIVT SZ IP       1624 30.29                              47   -0.01 9  111 249 
 RIVT SN IS       1624 43.92                              47    0.11 9  111 249 
 PEB  SZ IP       1624 31.35                              47    0.21 9  117 198 
 PEB  SN IS       1624 44.86                              47   -0.42 9  117 198 
                                                                                
 2001  225 0250 49.9 L  50.381   7.413  8.3  RLP  4 0.2 2.2LRLP                1
 OLDACT:UP  25-05-12 14:56 OP:fm   STATUS:               ID:20010225025001     3
 GAP=242   RLP  0.45       2.1     3.7  2.1 -0.5688E+01 -0.3080E+00  0.8246E+00E
 GAP=240   BER  0.52       2.4     4.1  1.9 -0.6853E+01  0.2188E-01  0.8070E+00E
 ACTION:UPD 25-05-19 20:22 OP:fm   STATUS:               ID:20010225025001     I
 OLDACT:UP  25-04-28 17:29 OP:fm   STATUS:               ID:20010225025001     3
 OLDACT:ARG 25-04-28 16:54 OP:fm   STATUS:               ID:20010225025001     3
 2001-02-25-0250-01S.RLPBA_027                                                 6
 STAT SP IPHASW D HRMM SECON CODA AMPLIT PERI AZIMU VELO AIN AR TRES W  DIS CAZ7
 BGG  SZ IP        250 53.58                             113    0.0410 20.1 196 
 BGG  SN IS        250 56.19                             113   -0.0510 20.1 196 
 KOE  SZ IP        250 54.12                             110    0.0610 23.2  77 
 KOE  SE IS        250 57.09                             110   -0.0510 23.2  77 
 KOE  SE  IAML     250 57.28       558.1 0.13                          23.2  77 
 IMS  SZ IP        251  5.46                              95   -0.2310 94.2 158 
 IMS  SN IS        251 17.56                              95    0.1710 94.2 158 
 PEB  SZ IP        251 13.35                              47    0.34 7  148 172 
 PEB  SN IS        251 29.92                              47   -0.20 7  148 172 
                                                                                
 2001  915 1939 26.8 L  49.538   8.030 15.1  RLP  4 0.3 2.2LRLP                1
 OLDACT:UP  25-05-12 15:01 OP:fm   STATUS:               ID:20010915193804     3
 GAP=207   RLP  0.83       2.0     9.8  3.1 -0.1362E+01 -0.1160E+02 -0.2618E+01E
 GAP=203   BER  0.82       2.0     5.7  2.3 -0.3009E+01  0.4553E+00  0.5803E+00E
 ACTION:UPD 25-05-19 20:22 OP:fm   STATUS:               ID:20010915193804     I
 OLDACT:UP  25-05-12 14:59 OP:fm   STATUS:               ID:20010915193804     3
 OLDACT:UP  25-04-28 17:38 OP:fm   STATUS:               ID:20010915193804     3
 OLDACT:ARG 25-04-28 16:54 OP:fm   STATUS:               ID:20010915193804     3
 2001-09-15-1938-04S.RLPBA_030                                                 6
 STAT SP IPHASW D HRMM SECON CODA AMPLIT PERI AZIMU VELO AIN AR TRES W  DIS CAZ7
 IMS  SZ IP       1939 30.17                             144    0.2010 11.2 304 
 IMS  SN IS       1939 32.22                             144   -0.1210 11.2 304 
 PEB  SZ IP       1939 36.99                             105    0.2010 58.0 205 
 PEB  SN IS       1939 43.86                             105   -0.3610 58.0 205 
 BGG  SZ IP       1939 42.22                              68    0.5410 89.4 326 
 BGG  SE IS       1939 52.64                              68   -0.0810 89.4 326 
 BGG  SE  IAML    1939 54.66        94.6 0.14                          89.4 326 
 FACH SZ IP       1939 42.04                              68    0.1110 91.1 358 
 FACH SN IS       1939 52.68                              68   -0.4810 91.1 358 
                                                                                
 2002  1 7 2040 27.7 L  49.766   7.735  7.3  RLP  3 0.1 1.8LRLP                1
 OLDACT:UP  25-05-17 17:55 OP:fm   STATUS:               ID:20020107203952     3
 GAP=182   RLP  0.35       1.4     2.8 10.5  0.1416E+01  0.2653E+01 -0.1118E+02E
 GAP=144   BER  0.67       1.6     2.7  6.7 -0.9636E+00 -0.7681E+00  0.4439E+00E
 ACTION:UPD 25-05-19 20:22 OP:fm   STATUS:               ID:20020107203952     I
 OLDACT:UP  25-05-12 15:06 OP:fm   STATUS:               ID:20020107203952     3
 OLDACT:UP  25-04-28 17:46 OP:fm   STATUS:               ID:20020107203952     3
 OLDACT:ARG 25-04-28 16:55 OP:fm   STATUS:               ID:20020107203952     3
 2002-01-07-2039-52S.RLPBA_033                                                 6
 STAT SP IPHASW D HRMM SECON CODA AMPLIT PERI AZIMU VELO AIN AR TRES W  DIS CAZ7
 IMS  SZ IP       2040 31.60                             108   -0.1110 22.6 148 
 IMS  SE IS       2040 34.74                             108    0.0610 22.6 148 
 BGG  SZ IP       2040 37.22                              97   -0.0110 56.6 330 
 BGG  SE IS       2040 44.29                              97    0.0110 56.6 330 
 BGG  SE  IAML    2040 44.45        60.0 0.16                          56.6 330 
 FACH SZ IP       2040 39.27                              96    0.1210 68.2  16 
 FACH SE IS       2040 47.55                              96   -0.0710 68.2  16 
                                                                                
 2002  123 0823 10.2 L  49.703   7.164  6.4  RLP  5 0.3                        1
 OLDACT:UP  25-05-17 19:29 OP:fm   STATUS:               ID:20020123082240     3
 GAP=169   RLP  0.77       2.8     3.8  4.0  0.4918E+01 -0.3213E+01 -0.3558E+01E
 GAP=119   BER  0.73       1.7     2.3  6.4 -0.4079E+00  0.9243E+00 -0.2080E+00E
 ACTION:UPD 25-05-19 20:22 OP:fm   STATUS:               ID:20020123082240     I
 OLDACT:UP  25-05-12 15:09 OP:fm   STATUS:               ID:20020123082240     3
 OLDACT:UP  25-04-28 17:51 OP:fm   STATUS:               ID:20020123082240     3
 OLDACT:ARG 25-04-28 16:55 OP:fm   STATUS:               ID:20020123082240     3
 2002-01-23-0822-40S.RLPBA_024                                                 6
 STAT SP IPHASW D HRMM SECON CODA AMPLIT PERI AZIMU VELO AIN AR TRES W  DIS CAZ7
 RIVT SZ IP        823 14.90                             103   -0.2210 28.9 271 
 FSH  SZ IP        823 17.84                              99    0.6010 41.7 355 
 FSH  SE IS        823 22.29                              99   -0.1910 41.7 355 
 IMS  SZ IP        823 19.43                              97    0.0710 54.5 103 
 IMS  SE IS        823 26.14                              97   -0.0310 54.5 103 
 FACH SZ IP        823 25.57                              94   -0.3010 93.9  39 
 BIW  SZ IP        823 30.96                              47    0.33 8  124  23 
 BIW  SE IS        823 45.57                              47   -0.21 8  124  23 
                                                                                
 2002  123 2055 58.2 L  50.366   7.707  8.9  RLP  4 0.2 2.1LRLP                1
 OLDACT:UP  25-05-17 19:38 OP:fm   STATUS:               ID:20020123205404     3
 GAP=143   RLP  0.51       2.1     2.2  3.4 -0.1802E+01  0.2407E+00  0.2874E+01E
 GAP=156   BER  0.31       1.0     1.2  3.1 -0.5069E+00  0.2965E-01 -0.2426E+00E
 ACTION:UPD 25-05-19 20:22 OP:fm   STATUS:               ID:20020123205404     I
 OLDACT:UP  25-05-12 15:07 OP:fm   STATUS:               ID:20020123205404     3
 OLDACT:UP  25-04-28 17:53 OP:fm   STATUS:               ID:20020123205404     3
 OLDACT:ARG 25-04-28 16:55 OP:fm   STATUS:               ID:20020123205404     3
 2002-01-23-2054-04S.RLPBA_036                                                 6
 STAT SP IPHASW D HRMM SECON CODA AMPLIT PERI AZIMU VELO AIN AR TRES W  DIS CAZ7
 KOE  SZ IP       2056  0.38                             144    0.2310 6.81  15 
 KOE  SE IS       2056  1.56                             144   -0.0510 6.81  15 
 KOE  SE  IAML    2056  1.94      1082.4 0.17                          6.81  15 
 FACH SZ IP       2056  2.03                             114    0.1010 20.4  93 
 FACH SE IS       2056  4.57                             114   -0.1210 20.4  93 
 BGG  SZ IP       2056  3.93                             106    0.2210 31.8 236 
 BGG  SE IS       2056  7.59                             106   -0.2110 31.8 236 
 BIW  SZ IP       2056  5.15                             102   -0.1710 41.6  13 
                                                                                
 2002  124 1806 26.5 L  49.820   7.547  5.4  RLP  6 0.2 2.4LRLP                1
 OLDACT:UP  25-05-17 19:42 OP:fm   STATUS:               ID:20020124180404     3
 GAP=154   RLP  0.54       1.6     3.2 18.4  0.3407E+01  0.2978E+02  0.9035E+01E
 GAP=155   BER  0.48       1.3     2.0  4.2  0.1293E+01  0.9938E+00  0.1767E-01E
 ACTION:UPD 25-05-19 20:22 OP:fm   STATUS:               ID:20020124180404     I
 OLDACT:UP  25-05-12 15:09 OP:fm   STATUS:               ID:20020124180404     3
 OLDACT:UP  25-04-28 17:56 OP:fm   STATUS:               ID:20020124180404     3
 OLDACT:ARG 25-04-28 16:55 OP:fm   STATUS:               ID:20020124180404     3
 2002-01-24-1804-04S.RLPBA_042                                                 6
 STAT SP IPHASW D HRMM SECON CODA AMPLIT PERI AZIMU VELO AIN AR TRES W  DIS CAZ7
 IMS  SZ IP       18 6 32.57                              99   -0.0510 35.8 134 
 IMS  SE IS       18 6 37.18                              99    0.0610 35.8 134 
 FSH  SZ IP       18 6 34.08                              97    0.3710 42.5 312 
 FSH  SN IS       18 6 39.08                              97    0.0610 42.5 312 
 BGG  SZ IP       18 6 34.25                              97    0.0610 45.5 341 
 BGG  SE IS       18 6 39.55                              97   -0.3010 45.5 341 
 BGG  SE  IAML    18 6 39.83       362.3 0.15                          45.5 341 
 RIVT SZ IP       18 6 36.25                              95    0.0210 57.8 258 
 DUP  SZ IP       18 6 38.24                              94   -0.2410 71.3 231 
 STB  SZ IP       18 6 43.23                              93    0.0110 99.8 330 
                                                                                
 2002  211 0935 57.0 L  50.287   8.185  3.0  RLP  4 0.1                        1
 OLDACT:UP  25-05-17 19:57 OP:fm   STATUS:               ID:20020211093510     3
 GAP=119   RLP  0.35       0.9     1.6 11.5 -0.1371E-01 -0.2086E+01  0.5541E+01E
 GAP=119   BER  0.39       0.8     1.4  3.3  0.1979E+00 -0.2205E+00 -0.3825E-01E
 ACTION:UPD 25-05-19 20:22 OP:fm   STATUS:               ID:20020211093510     I
 OLDACT:UP  25-05-17 19:46 OP:fm   STATUS:               ID:20020211093510     3
 OLDACT:UP  25-04-28 18:04 OP:fm   STATUS:               ID:20020211093510     3
 OLDACT:ARG 25-04-28 16:55 OP:fm   STATUS:               ID:20020211093510     3
 2002-02-11-0935-10S.RLPBA_030                                                 6
 STAT SP IPHASW D HRMM SECON CODA AMPLIT PERI AZIMU VELO AIN AR TRES W  DIS CAZ7
 WBC  HZ IP        935 59.39                             103    0.0710 13.3  27 
 WBC  HE IS        936  1.05                             103    0.0310 13.3  27 
 FACH SZ IP        935 59.66                             101   -0.0410 15.7 300 
 FACH SN IS        936  1.64                             101   -0.0410 15.7 300 
 WBE  HZ IP        936  0.56                              99    0.1510 19.9 181 
 WBE  HN IS        936  2.89                              99   -0.0210 19.9 181 
 TNS  HZ IP        936  0.33                              99   -0.1510 20.0 111 
                                                                                
 2002  217 1226 12.5 L  49.195   7.951 19.6  RLP  3 0.1                        1
 OLDACT:UP  25-04-28 18:06 OP:fm   STATUS:               ID:20020217122608     3
 GAP=238   RLP  0.33       2.0     5.8  1.8 -0.9529E+01  0.7502E+01 -0.2460E+01E
 GAP=238   BER  0.33       2.0     5.8  1.8 -0.9529E+01  0.7503E+01 -0.2461E+01E
 ACTION:UPD 25-05-19 20:22 OP:fm   STATUS:               ID:20020217122608     I
 OLDACT:ARG 25-04-28 16:55 OP:fm   STATUS:               ID:20020217122608     3
 2002-02-17-1226-08S.RLPBA_021                                                 6
 STAT SP IPHASW D HRMM SECON CODA AMPLIT PERI AZIMU VELO AIN AR TRES W  DIS CAZ7
 PEB  SZ IP       1226 17.60                             125   -0.0610 23.8 233 
 PEB  SN IS       1226 21.49                             125    0.0410 23.8 233 
 IMS  SZ IP       1226 20.52                             106   -0.0510 44.5 355 
 IMS  SE IS       1226 26.55                             106    0.0310 44.5 355 
 DUP  SZ IP       1226 27.30                              52    0.1110 88.1 286 
 DUP  SE IS       1226 37.96                              52   -0.0710 88.1 286 
                                                                                
 2002  222 0210  7.4 L  49.871   8.858  9.0  RLP  5 0.4 1.7LRLP                1
 OLDACT:UP  25-05-12 15:12 OP:fm   STATUS:               ID:20020222020939     3
 GAP=282   RLP  1.04       3.3     9.8  4.7 -0.9902E+01 -0.5652E+01  0.3239E+01E
 GAP=282   BER  1.04       3.3     9.6  4.3 -0.9314E+01 -0.4620E+01  0.2954E+01E
 ACTION:UPD 25-05-19 20:22 OP:fm   STATUS:               ID:20020222020939     I
 OLDACT:UP  25-04-28 18:12 OP:fm   STATUS:               ID:20020222020939     3
 OLDACT:ARG 25-04-28 16:55 OP:fm   STATUS:               ID:20020222020939     3
 2002-02-22-0209-39S.RLPBA_042                                                 6
 STAT SP IPHASW D HRMM SECON CODA AMPLIT PERI AZIMU VELO AIN AR TRES W  DIS CAZ7
 TNS  HZ IP        210 15.65                             101   -0.0910 48.9 323 
 TNS  HN IS        210 21.69                             101   -0.2610 48.9 323 
 WBE  HZ IP        210 17.15                              99    0.4410 55.2 299 
 WBE  HE IS        210 24.39                              99    0.7610 55.2 299 
 WBC  HZ IP        210 19.63                              97    0.2010 71.8 324 
 WBC  HE IS        210 27.76                              97   -0.6110 71.8 324 
 IMS  SZ IP        210 20.15                              97    0.0710 75.5 246 
 IMS  SE IS        210 29.02                              97   -0.4710 75.5 246 
 BGG  SZ IP        210 26.36                              47   -0.05 9  115 289 
 BGG  SN IS        210 40.53                              47    0.01 9  115 289 
 BGG  SN  IAML     210 41.36        18.4 0.18                           115 289 
                                                                                
 2002  3 6 1150 43.3 L  50.563   8.251  2.4  RLP  4 0.1                        1
 OLDACT:UP  25-05-12 15:15 OP:fm   STATUS:               ID:20020306115017     3
 GAP=233   RLP  0.30       1.0     2.6 12.9  0.1837E+01 -0.4024E+01 -0.4014E+01E
 GAP=233   BER  0.31       1.3     3.4  3.8  0.3329E+01  0.7285E+01  0.2461E+01E
 ACTION:UPD 25-05-19 20:22 OP:fm   STATUS:               ID:20020306115017     I
 OLDACT:UP  25-04-28 18:14 OP:fm   STATUS:               ID:20020306115017     3
 OLDACT:ARG 25-04-28 16:55 OP:fm   STATUS:               ID:20020306115017     3
 2002-03-06-1150-17S.RLPBA_033                                                 6
 STAT SP IPHASW D HRMM SECON CODA AMPLIT PERI AZIMU VELO AIN AR TRES W  DIS CAZ7
 WBC  HZ IP       1150 46.54                              97    0.0110 18.9 176 
 WBC  HE IS       1150 48.89                              97   -0.0010 18.9 176 
 FACH SZ IP       1150 48.26                              95   -0.0110 29.4 219 
 FACH SN IS       1150 51.94                              95    0.0210 29.4 219 
 BIW  SZ IP       1150 49.29                              94    0.1110 34.7 303 
 BIW  SE IS       1150 53.43                              94   -0.0710 34.7 303 
 WBE  HZ IP       1150 51.78                              93   -0.0810 50.9 186 
 WBE  HN IS       1150 58.20                              93    0.0310 50.9 186 
                                                                                
 2002  3 7 1157 10.9 L  50.330   7.475  2.1  RLP  5 0.3 2.0LRLP                1
 OLDACT:UP  25-05-12 15:16 OP:fm   STATUS:               ID:20020307115604     3
 GAP=204   RLP  0.78       2.8     4.5 30.5 -0.9221E+01 -0.8681E+02  0.4400E+02E
 GAP=204   BER  0.78       2.8     4.5 30.5 -0.9221E+01 -0.8684E+02  0.4401E+02E
 ACTION:UPD 25-05-19 20:22 OP:fm   STATUS:               ID:20020307115604     I
 OLDACT:UP  25-04-28 18:20 OP:fm   STATUS:               ID:20020307115604     3
 OLDACT:ARG 25-04-28 16:55 OP:fm   STATUS:               ID:20020307115604     3
 2002-03-07-1156-04S.RLPBA_042                                                 6
 STAT SP IPHASW D HRMM SECON CODA AMPLIT PERI AZIMU VELO AIN AR TRES W  DIS CAZ7
 BGG  SZ IP       1157 13.41                              97   -0.3510 16.9 216 
 BGG  SE IS       1157 15.94                              97    0.0610 16.9 216 
 BGG  SE  IAML    1157 16.72       504.5 0.12                          16.9 216 
 KOE  SZ IP       1157 14.34                              96   -0.1610 21.1  60 
 KOE  SE IS       1157 17.52                              96    0.3610 21.1  60 
 WBE  HZ IP       1157 20.80                              92    0.5010 56.1 116 
 WBE  HE IS       1157 26.96                              92   -0.2910 56.1 116 
 WBC  HZ IP       1157 20.34                              92   -0.0910 57.0  83 
 WBC  HE IS       1157 27.13                              92   -0.3410 57.0  83 
 IMS  SZ IP       1157 25.75                              91    0.2310 87.4 159 
 IMS  SN IS       1157 36.41                              91    0.0810 87.4 159 
                                                                                
