 2003 1019 2133 26.5 L  50.392   7.351 16.1  RLP  6 0.3 1.2LRLP                1
 OLDACT:UP  25-05-17 22:11 OP:fm   STATUS:               ID:20031019213200     3
 GAP=100   RLP  0.79       3.8     3.9  6.1  0.9833E+00  0.1379E+01 -0.1680E+02E
 GAP=150   BER  0.94       2.8     3.2  9.4  0.8006E+00  0.1213E+01  0.1587E+01E
 ACTION:UPD 25-05-19 20:22 OP:fm   STATUS:               ID:20031019213200     I
 OLDACT:UP  25-05-12 16:25 OP:fm   STATUS:               ID:20031019213200     3
 OLDACT:UP  25-04-28 20:35 OP:fm   STATUS:               ID:20031019213200     3
 OLDACT:ARG 25-04-28 16:55 OP:fm   STATUS:               ID:20031019213200     3
 2003-10-19-2132-00S.RLPBA_036                                                 6
 STAT SP IPHASW D HRMM SECON CODA AMPLIT PERI AZIMU VELO AIN AR TRES W  DIS CAZ7
 BGG  SZ IP       2133 30.93                             128   -0.0110 20.7 183 
 FSH  SZ IP       2133 33.63                             113   -0.0210 39.2 206 
 STB  SZ IP       2133 34.79                              68    0.6310 42.6 302 
 STB  SN IS       2133 39.48                              68   -0.3210 42.6 302 
 STB  SN  IAML    2133 44.68        23.1 0.11                          42.6 302 
 FACH SZ IP       2133 34.79                              68    0.1310 45.9  95 
 BIW  SZ IP       2133 35.23                              68   -0.2510 51.0  42 
 RIVT SZ IP       2133 40.89                              68   -0.1610 87.0 209 
                                                                                
 2003 1023 2116 11.6 L  50.186   7.819 12.8  RLP  3 0.2 1.2LRLP                1
 OLDACT:UP  25-05-12 16:27 OP:fm   STATUS:               ID:20031023211531     3
 GAP=140   RLP  0.55     999.9   999.9999.9 -0.8256E+07 -0.8628E+07  0.1766E+08E
 GAP=139   BER  0.58     588.6   288.0609.5 -0.1695E+06 -0.1756E+06  0.3587E+06E
 ACTION:UPD 25-05-19 20:22 OP:fm   STATUS:               ID:20031023211531     I
 OLDACT:UP  25-04-28 20:47 OP:fm   STATUS:               ID:20031023211531     3
 OLDACT:ARG 25-04-28 16:55 OP:fm   STATUS:               ID:20031023211531     3
 2003-10-23-2115-31S.RLPBA_042                                                 6
 STAT SP IPHASW D HRMM SECON CODA AMPLIT PERI AZIMU VELO AIN AR TRES W  DIS CAZ7
 BGG  SZ IP       2116 18.08                             111    0.2810 34.5 274 
 BGG  SE IS       2116 22.13                             111   -0.2210 34.5 274 
 BGG  SE  IAML    2116 22.25        31.1 0.13                          34.5 274 
 WBC  HZ IP       2116 18.61                             108    0.0110 39.6  54 
 WBC  HE IS       2116 23.67                             108   -0.0810 39.6  54 
 PEB  SZ IP       2116 31.72                              47    0.23 8  125 184 
 PEB  SN IS       2116 45.95                              47   -0.22 8  125 184 
                                                                                
 2003 1026 0636 16.3 L  49.657   8.437 13.6  RLP  4 0.3 1.5LRLP                1
 OLDACT:UP  25-05-12 16:30 OP:fm   STATUS:               ID:20031026063531     3
 GAP=272   RLP  0.78       2.5     8.6  3.5  0.4511E+01 -0.1127E+02 -0.3020E+01E
 GAP=283   BER  0.89       3.8    11.2  4.1  0.6792E+01 -0.2049E+02 -0.4602E+01E
 ACTION:UPD 25-05-19 20:22 OP:fm   STATUS:               ID:20031026063531     I
 OLDACT:UP  25-05-12 16:28 OP:fm   STATUS:               ID:20031026063531     3
 OLDACT:UP  25-04-28 20:50 OP:fm   STATUS:               ID:20031026063531     3
 OLDACT:ARG 25-04-28 16:55 OP:fm   STATUS:               ID:20031026063531     3
 2003-10-26-0635-31S.RLPBA_042                                                 6
 STAT SP IPHASW D HRMM SECON CODA AMPLIT PERI AZIMU VELO AIN AR TRES W  DIS CAZ7
 IMS  SZ IP        636 23.09                             109   -0.2510 39.3 260 
 IMS  SE IS        636 28.64                             109    0.1310 39.3 260 
 PEB  SZ IP        636 30.47                              68   -0.2710 85.2 220 
 PEB  SE IS        636 41.56                              68    0.1810 85.2 220 
 BGG  SZ IP        636 32.92                              68   -0.0410 99.8 308 
 BGG  SE IS        636 45.33                              68    0.0710 99.8 308 
 BGG  SE  IAML     636 45.51        15.0 0.18                          99.8 308 
 FSH  SZ IP        636 34.44                              47    0.6010  106 297 
 FSH  SN IS        636 46.39                              47   -0.3910  106 297 
                                                                                
 2003 1130 1708 19.9 L  50.287   7.810  7.4  RLP  6 0.5 1.1LRLP                1
 OLDACT:UP  25-05-12 16:39 OP:fm   STATUS:               ID:20031130170600     3
 GAP=171   RLP  1.30       5.1     9.1 17.6 -0.3185E+02  0.1004E+03 -0.2195E+02E
 GAP=180   BER  0.67       2.5     2.8  6.8 -0.3760E+01  0.1674E+01 -0.3044E+01E
 ACTION:UPD 25-05-19 20:22 OP:fm   STATUS:               ID:20031130170600     I
 OLDACT:UP  25-04-28 20:53 OP:fm   STATUS:               ID:20031130170600     3
 OLDACT:ARG 25-04-28 16:55 OP:fm   STATUS:               ID:20031130170600     3
 2003-11-30-1706-00S.RLPBA_033                                                 6
 STAT SP IPHASW D HRMM SECON CODA AMPLIT PERI AZIMU VELO AIN AR TRES W  DIS CAZ7
 FACH SE IS       17 8 24.87                             116    0.0810 15.2  59 
 BGG  SZ IP       17 8 26.29                             102    0.4710 34.9 255 
 BGG  SE IS       17 8 30.05                             102   -0.1810 34.9 255 
 BGG  SE  IAML    17 8 30.81        22.6 0.13                          34.9 255 
 BIW  SZ IP       17 8 28.69                              99    0.4610 49.4   2 
 BIW  SN IS       17 8 33.85                              99   -0.5810 49.4   2 
 FSH  SZ IP       17 8 29.34                              98    0.1510 55.3 245 
 RIVT SZ IP       17 8 35.50                              94   -0.9110 98.9 230 
 BLI  SZ IP       17 8 38.65                              94    0.58 9  109 267 
                                                                                
 2003 1214 0606  8.5 L  50.061   8.561  9.8  RLP  3 0.3 1.4LRLP                1
 OLDACT:UP  25-05-12 16:42 OP:fm   STATUS:               ID:20031214060400     3
 GAP=305   RLP  0.86       5.6    10.3 13.3 -0.3379E+02 -0.6082E+02  0.3548E+02E
 GAP=305   BER  0.86       5.6    10.3 13.3 -0.3379E+02 -0.6081E+02  0.3547E+02E
 ACTION:UPD 25-05-19 20:22 OP:fm   STATUS:               ID:20031214060400     I
 OLDACT:UP  25-04-28 20:56 OP:fm   STATUS:               ID:20031214060400     3
 OLDACT:ARG 25-04-28 16:55 OP:fm   STATUS:               ID:20031214060400     3
 2003-12-14-0604-00S.RLPBA_042                                                 6
 STAT SP IPHASW D HRMM SECON CODA AMPLIT PERI AZIMU VELO AIN AR TRES W  DIS CAZ7
 TNS  HZ IP        6 6 12.48                             117    0.2310 19.7 336 
 TNS  HN IS        6 6 14.92                             117   -0.1310 19.7 336 
 WBE  HZ IP        6 6 12.84                             110   -0.5610 27.7 281 
 WBE  HN IS        6 6 17.37                             110    0.3210 27.7 281 
 WBC  HZ IP        6 6 16.09                             103    0.3310 42.5 331 
 WBC  HN IS        6 6 20.96                             103   -0.1910 42.5 331 
 BGG  SN  IAML     6 6 39.45        15.5 0.15                          89.0 281 
                                                                                
 2003 1228 2222  7.9 L  50.066   8.268  9.4  RLP  4 0.2                        1
 OLDACT:UP  25-05-17 22:15 OP:fm   STATUS:               ID:20031228222000     3
 GAP=271   RLP  0.67      11.2     7.5  6.4  0.1541E+01 -0.2730E+02 -0.3422E+02E
 GAP=167   BER  0.91       3.0     5.0  9.1 -0.9744E+01  0.2631E+01 -0.3061E+01E
 ACTION:UPD 25-05-19 20:22 OP:fm   STATUS:               ID:20031228222000     I
 OLDACT:UP  25-05-12 17:13 OP:fm   STATUS:               ID:20031228222000     3
 OLDACT:UP  25-05-12 16:45 OP:fm   STATUS:               ID:20031228222000     3
 OLDACT:UP  25-04-28 20:58 OP:fm   STATUS:               ID:20031228222000     3
 OLDACT:ARG 25-04-28 16:55 OP:fm   STATUS:               ID:20031228222000     3
 2003-12-28-2220-00S.RLPBA_042                                                 6
 STAT SP IPHASW D HRMM SECON CODA AMPLIT PERI AZIMU VELO AIN AR TRES W  DIS CAZ7
 WBE  HZ IP       2222  9.80                             141   -0.1810 7.75 307 
 WBE  HN IS       2222 11.57                             141    0.0610 7.75 307 
 TNS  HZ IP       2222 12.14                             114    0.2010 21.6  36 
 WBC  HZ IP       2222 13.83                             105   -0.3710 36.5   0 
 FACH SZ IP       2222 14.70                             104    0.2910 37.8 329 
                                                                                
 2004  3 1 1102 35.7 L  49.971   7.651 17.5  RLP  3 0.0                        1
 OLDACT:UP  25-04-28 21:03 OP:fm   STATUS:               ID:20040301110200     3
 GAP=130   RLP  0.29       0.8     1.7 11.3  0.3331E+00 -0.1238E+02 -0.2122E+01E
 GAP=130   BER  0.29       0.8     1.6  9.9  0.2800E+00 -0.9285E+01 -0.1594E+01E
 ACTION:UPD 25-05-19 20:22 OP:fm   STATUS:               ID:20040301110200     I
 OLDACT:ARG 25-04-28 16:56 OP:fm   STATUS:               ID:20040301110200     3
 2004-03-01-1102-00S.RLPBA_030                                                 6
 STAT SP IPHASW D HRMM SECON CODA AMPLIT PERI AZIMU VELO AIN AR TRES W  DIS CAZ7
 FSH  SZ IP       11 2 43.10                             104   -0.0010 40.6 287 
 FSH  SN IS       11 2 48.55                             104    0.0010 40.6 287 
 IMS  SZ IP       11 2 43.88                             100   -0.0010 45.6 157 
 IMS  SE IS       11 2 49.91                             100    0.0010 45.6 157 
 FACH SZ IP       11 2 44.42                              98    0.0110 49.3  30 
 FACH SE IS       11 2 50.82                              98   -0.0010 49.3  30 
                                                                                
 2004  3 1 1714 27.0 L  50.358   7.339 16.1  RLP  5 0.3 2.2LRLP                1
 OLDACT:UP  25-05-12 17:22 OP:fm   STATUS:               ID:20040301171352     3
 GAP=234   RLP  0.86       4.8     9.3  6.1 -0.1138E+02  0.3971E+02 -0.1995E+02E
 GAP=278   BER  0.49       6.8     8.3 11.6  0.5217E+02  0.8403E+02  0.7071E+02E
 ACTION:UPD 25-05-19 20:22 OP:fm   STATUS:               ID:20040301171352     I
 OLDACT:UP  25-04-28 21:06 OP:fm   STATUS:               ID:20040301171352     3
 OLDACT:ARG 25-04-28 16:56 OP:fm   STATUS:               ID:20040301171352     3
 2004-03-01-1713-52S.RLPBA_039                                                 6
 STAT SP IPHASW D HRMM SECON CODA AMPLIT PERI AZIMU VELO AIN AR TRES W  DIS CAZ7
 BGG  SZ IP       1714 30.86                             134   -0.0810 16.9 180 
 BGG  SE IS       1714 33.48                             134   -0.3510 16.9 180 
 BGG  SE  IAML    1714 34.16       530.2 0.13                          16.9 180 
 FSH  SZ IP       1714 34.16                             115    0.6110 35.4 208 
 FSH  SE IS       1714 38.68                             115    0.3010 35.4 208 
 STB  SZ IP       1714 34.96                              68    0.0910 44.1 307 
 BLI  SZ IP       1714 39.94                              68    0.0710 76.2 260 
 BLI  SN IS       1714 49.11                              68   -0.2710 76.2 260 
 RIVT SZ IP       1714 40.59                              68   -0.3610 83.3 210 
                                                                                
 2004  3 5 1447 56.3 L  50.183   8.590 17.9  RLP  4 0.2 2.5LRLP                1
 OLDACT:UP  25-05-12 17:26 OP:fm   STATUS:               ID:20040305144600     3
 GAP=261   RLP  0.61       2.1     6.0  6.2 -0.8278E+00 -0.7364E+01  0.6085E+01E
 GAP=265   BER  0.61       3.6    10.7  6.3 -0.2400E+02 -0.4851E+02  0.1956E+02E
 ACTION:UPD 25-05-19 20:22 OP:fm   STATUS:               ID:20040305144600     I
 OLDACT:UP  25-04-28 21:08 OP:fm   STATUS:               ID:20040305144600     3
 OLDACT:ARG 25-04-28 16:56 OP:fm   STATUS:               ID:20040305144600     3
 2004-03-05-1446-00S.RLPBA_039                                                 6
 STAT SP IPHASW D HRMM SECON CODA AMPLIT PERI AZIMU VELO AIN AR TRES W  DIS CAZ7
 WBE  HZ IP       1448  2.25                             114    0.1010 30.4 254 
 WBE  HE IS       1448  6.42                             114   -0.0710 30.4 254 
 WBC  HZ IP       1448  2.56                             112    0.0910 32.7 316 
 WBC  HN IS       1448  7.00                             112   -0.0510 32.7 316 
 IMS  SZ IP       1448  9.60                              93   -0.4510 82.1 217 
 IMS  SN IS       1448 20.51                              93    0.2710 82.1 217 
 BGG  SZ IP       1448 11.39                              92    0.2410 89.5 272 
 BGG  SN IS       1448 22.02                              92   -0.1410 89.5 272 
 BGG  SN  IAML    1448 25.25       155.0 0.13                          89.5 272 
                                                                                
 2004  315 0755  5.5 L  50.375   7.419 11.2  RLP  6 0.5 2.5LRLP                1
 OLDACT:UP  25-05-12 17:35 OP:fm   STATUS:               ID:20040315075400     3
 GAP=234   RLP  1.38      12.1    10.7  6.8 -0.1178E+03  0.1719E+02 -0.2277E+02E
 GAP=196   BER  0.43       3.2     1.8  4.0 -0.4557E+01  0.2269E+01 -0.4929E+01E
 ACTION:UPD 25-05-19 20:22 OP:fm   STATUS:               ID:20040315075400     I
 OLDACT:UP  25-04-28 21:12 OP:fm   STATUS:               ID:20040315075400     3
 OLDACT:UP  25-04-28 21:11 OP:fm   STATUS:               ID:20040315075400     3
 OLDACT:UP  25-04-28 21:09 OP:fm   STATUS:               ID:20040315075400     3
 OLDACT:UP  25-04-28 21:09 OP:fm   STATUS:               ID:20040315075400     3
 OLDACT:ARG 25-04-28 16:56 OP:fm   STATUS:               ID:20040315075400     3
 2004-03-15-0754-00S.RLPBA_039                                                 6
 STAT SP IPHASW D HRMM SECON CODA AMPLIT PERI AZIMU VELO AIN AR TRES W  DIS CAZ7
 BGG  SZ IP        755  9.73                             120    0.4910 19.6 197 
 BGG  SE IS        755 12.35                             120    0.3010 19.6 197 
 BGG  SE  IAML     755 12.78      1054.8 0.10                          19.6 197 
 FSH  SZ IP        755 12.60                             106    0.2010 39.9 214 
 FSH  SE IS        755 17.03                             106   -0.5210 39.9 214 
 FACH SZ IP        755 12.91                             105    0.3710 40.9  93 
 FACH SE IS        755 17.41                             105   -0.3810 40.9  93 
 WBC  HZ IP        755 16.29                             101    0.5610 60.5  88 
 WBC  HE IS        755 22.72                             101   -0.6210 60.5  88 
 RIVT SZ IP        755 19.33                              97   -0.9110 87.8 213 
 IMS  SZ IP        755 21.71                              97    0.5210 93.4 158 
                                                                                
 2004  4 7 1031 53.7 L  50.663   8.124 11.6  RLP  3 0.3                        1
 OLDACT:UP  25-05-12 17:36 OP:fm   STATUS:               ID:20040407103128     3
 GAP=265   RLP  0.86       4.8    14.3  3.9  0.5288E+02 -0.7506E+00  0.3478E+01E
 GAP=262   BER  0.89       4.7    13.7  3.2  0.4784E+02  0.6438E+01  0.4951E+01E
 ACTION:UPD 25-05-19 20:22 OP:fm   STATUS:               ID:20040407103128     I
 OLDACT:UP  25-04-28 21:18 OP:fm   STATUS:               ID:20040407103128     3
 OLDACT:ARG 25-04-28 16:56 OP:fm   STATUS:               ID:20040407103128     3
 2004-04-07-1031-28S.RLPBA_024                                                 6
 STAT SP IPHASW D HRMM SECON CODA AMPLIT PERI AZIMU VELO AIN AR TRES W  DIS CAZ7
 BIW  SZ IP       1031 57.32                             119   -0.5410 21.6 291 
 BIW  SN IS       1032  1.23                             119    0.3110 21.6 291 
 FACH SZ IP       1032  0.32                             108    0.3810 35.3 195 
 FACH SE IS       1032  4.32                             108   -0.2110 35.3 195 
 RIVT SZ IP       1032 16.31                              47    0.29 7  144 223 
 RIVT SN IS       1032 32.35                              47   -0.17 7  144 223 
                                                                                
 2004  420 1347 52.3 L  49.791   7.329  7.7  RLP  4 0.1                        1
 GAP=140   RLP  0.39       1.8     1.5 12.4  0.5786E+00 -0.6322E+01 -0.8343E+01E
 OLDACT:UP  25-04-28 21:24 OP:fm   STATUS:               ID:20040420134752     3
 ACTION:UP  25-05-19 21:25 OP:fm   STATUS:               ID:20040420134752     I
 OLDACT:UPD 25-05-19 20:22 OP:fm   STATUS:               ID:20040420134752     3
 OLDACT:ARG 25-04-28 16:56 OP:fm   STATUS:               ID:20040420134752     3
 2004-04-20-1347-52S.RLPBA_021                                                 6
 STAT SP IPHASW D HRMM SECON CODA AMPLIT PERI AZIMU VELO AIN AR TRES W  DIS CAZ7
 RIVT SZ IP       1347 59.62                             101    0.2110 41.8 257 
 RIVT SN IS       1348  4.56                             101   -0.1210 41.8 257 
 IMS  SZ IP       1348  0.22                             100   -0.0210 46.7 118 
 IMS  SE IS       1348  6.16                             100    0.0510 46.7 118 
 FACH SZ IP       1348  5.46                              96   -0.0510 78.8  37 
 PEB  SZ IP       1348  6.46                              95   -0.0710 84.9 162 
                                                                                
 2004  430 0247  2.4 L  49.849   8.449  5.1  RLP  7 0.2 1.6LRLP                1
 OLDACT:UP  25-05-17 22:18 OP:fm   STATUS:               ID:20040430024600     3
 GAP=246   RLP  0.46       1.2     3.6  4.4 -0.1540E+01 -0.3921E+01  0.1170E+01E
 GAP=247   BER  0.42       2.4    10.8  8.0 -0.2390E+02  0.7311E+02 -0.1567E+02E
 ACTION:UPD 25-05-19 20:22 OP:fm   STATUS:               ID:20040430024600     I
 OLDACT:UP  25-05-17 22:17 OP:fm   STATUS:               ID:20040430024600     3
 OLDACT:UP  25-05-12 17:41 OP:fm   STATUS:               ID:20040430024600     3
 OLDACT:UP  25-04-28 21:29 OP:fm   STATUS:               ID:20040430024600     3
 OLDACT:ARG 25-04-28 16:56 OP:fm   STATUS:               ID:20040430024600     3
 2004-04-30-0246-00S.RLPBA_036                                                 6
 STAT SP IPHASW D HRMM SECON CODA AMPLIT PERI AZIMU VELO AIN AR TRES W  DIS CAZ7
 IMS  SZ IP        247 10.46                              96   -0.1310 48.7 235 
 IMS  SE IS        247 16.67                              96    0.0010 48.7 235 
 WBC  HZ IP        247 12.92                              95    0.1610 61.9 348 
 FACH SZ IP        247 13.23                              94   -0.0610 65.1 330 
 FACH SE IS        247 21.40                              94    0.0410 65.1 330 
 KOE  SZ IP        247 16.35                              94    0.2010 82.1 322 
 KOE  SE IS        247 26.04                              94   -0.3010 82.1 322 
 BGG  SZ IP        247 17.40                              93    0.1410 89.0 297 
 BGG  SN IS        247 28.41                              93    0.1410 89.0 297 
 BGG  SN  IAML     247 28.80        23.7 0.16                          89.0 297 
 BIW  SZ IP        247 20.12                              93   -0.2110  107 336 
 RIVT SZ IP        247 22.79                              47   -0.01 8  122 263 
                                                                                
