 2002  614 1538 51.4 L  49.656   7.137  6.6  RLP  4 0.2                        1
 OLDACT:UP  25-05-12 15:20 OP:fm   STATUS:               ID:20020614153824     3
 GAP=126   RLP  0.61       2.6     2.0  5.8  0.2168E+00 -0.3933E+01 -0.6197E+01E
 GAP=174   BER  0.55       2.5     1.7  5.6 -0.1401E+00  0.5882E+00  0.1824E+01E
 ACTION:UPD 25-05-19 20:22 OP:fm   STATUS:               ID:20020614153824     I
 OLDACT:UP  25-05-12 15:19 OP:fm   STATUS:               ID:20020614153824     3
 OLDACT:UP  25-04-28 18:25 OP:fm   STATUS:               ID:20020614153824     3
 OLDACT:ARG 25-04-28 16:55 OP:fm   STATUS:               ID:20020614153824     3
 2002-06-14-1538-24S.RLPBA_024                                                 6
 STAT SP IPHASW D HRMM SECON CODA AMPLIT PERI AZIMU VELO AIN AR TRES W  DIS CAZ7
 RIVT SZ IP       1538 56.47                             104    0.2710 27.5 282 
 RIVT SE IS       1538 59.48                             104   -0.2310 27.5 282 
 DUP  SZ IP       1538 58.08                             100    0.3110 37.2 223 
 DUP  SN IS       1539  2.23                             100   -0.2310 37.2 223 
 IMS  SZ IP       1539  0.94                              97    0.1210 55.6  97 
 IMS  SN IS       1539  7.61                              97   -0.1610 55.6  97 
 BIW  SZ IP       1539 12.45                              47   -0.12 8  130  22 
                                                                                
 2002  7 2 0733 21.6 L  50.188   8.643 11.6  RLP  4 0.2                        1
 OLDACT:UP  25-04-28 18:28 OP:fm   STATUS:               ID:20020702073239     3
 GAP=268   RLP  0.62       2.1     7.8  6.2 -0.4293E+01 -0.2680E+02  0.6985E+01E
 GAP=268   BER  0.62       2.1     7.8  6.2 -0.4293E+01 -0.2680E+02  0.6986E+01E
 ACTION:UPD 25-05-19 20:22 OP:fm   STATUS:               ID:20020702073239     I
 OLDACT:ARG 25-04-28 16:55 OP:fm   STATUS:               ID:20020702073239     3
 2002-07-02-0732-39S.RLPBA_030                                                 6
 STAT SP IPHASW D HRMM SECON CODA AMPLIT PERI AZIMU VELO AIN AR TRES W  DIS CAZ7
 TNS  HZ IP        733 24.94                             130    0.1010 14.5 285 
 TNS  HN IS        733 27.16                             130   -0.0610 14.5 285 
 WBE  HZ IP        733 27.89                             109    0.2110 34.2 255 
 WBE  HE IS        733 32.14                             109   -0.0210 34.2 255 
 WBC  HZ IP        733 28.04                             108    0.2310 35.1 311 
 WBC  HN IS        733 32.20                             108   -0.1910 35.1 311 
 IMS  SZ IP        733 35.51                              98   -0.4510 84.9 219 
 IMS  SN IS        733 46.74                              98    0.1810 84.9 219 
                                                                                
 2002  7 8 0715 35.4 L  50.138   8.262  9.0  RLP  3 0.0                        1
 OLDACT:UP  25-04-28 18:29 OP:fm   STATUS:               ID:20020708071431     3
 GAP=185   RLP  0.31       1.6     2.1  3.0 -0.1364E+01 -0.2380E+00 -0.3009E+01E
 GAP=185   BER  0.31       1.6     2.1  3.0 -0.1364E+01 -0.2381E+00 -0.3009E+01E
 ACTION:UPD 25-05-19 20:22 OP:fm   STATUS:               ID:20020708071431     I
 OLDACT:ARG 25-04-28 16:55 OP:fm   STATUS:               ID:20020708071431     3
 2002-07-08-0714-31S.RLPBA_033                                                 6
 STAT SP IPHASW D HRMM SECON CODA AMPLIT PERI AZIMU VELO AIN AR TRES W  DIS CAZ7
 WBE  HZ IP        715 37.28                             144   -0.0710 6.70 240 
 WBE  HN IS        715 38.81                             144    0.0410 6.70 240 
 TNS  HZ IP        715 38.63                             120   -0.0110 16.2  55 
 TNS  HN IS        715 41.01                             120    0.0010 16.2  55 
 WBC  HZ IP        715 40.50                             108    0.0710 28.4   1 
 WBC  HE IS        715 44.08                             108   -0.0410 28.4   1 
                                                                                
 2002  8 5 0541 14.4 L  49.548   7.533 10.3  RLP  4 0.2 1.8LRLP                1
 OLDACT:UP  25-05-12 15:23 OP:fm   STATUS:               ID:20020805054004     3
 GAP=165   RLP  0.47       1.2     4.6 13.3  0.2982E+01  0.5254E+02  0.6559E+01E
 GAP=164   BER  0.47       1.4     5.1 12.4  0.4584E+01  0.5605E+02  0.9715E+01E
 ACTION:UPD 25-05-19 20:22 OP:fm   STATUS:               ID:20020805054004     I
 OLDACT:UP  25-04-28 18:35 OP:fm   STATUS:               ID:20020805054004     3
 OLDACT:ARG 25-04-28 16:55 OP:fm   STATUS:               ID:20020805054004     3
 2002-08-05-0540-04S.RLPBA_036                                                 6
 STAT SP IPHASW D HRMM SECON CODA AMPLIT PERI AZIMU VELO AIN AR TRES W  DIS CAZ7
 IMS  SZ IP        541 19.24                             111   -0.0310 27.1  79 
 IMS  SE IS        541 22.89                             111    0.0010 27.1  79 
 PEB  SZ IP        541 23.45                             101   -0.2810 54.8 168 
 PEB  SN IS        541 30.82                             101    0.1810 54.8 168 
 FSH  SZ IP        541 25.73                              99    0.1210 66.2 333 
 FSH  SE IS        541 33.78                              99   -0.1210 66.2 333 
 BGG  SZ IP        541 27.08                              98    0.1310 74.5 349 
 BGG  SE  IAML     541 39.54        43.1 0.18                          74.5 349 
                                                                                
 2002 10 4 2145 41.0 L  50.294   7.356  6.9  RLP  4 0.3 2.2LRLP                1
 OLDACT:UP  25-05-12 15:26 OP:fm   STATUS:               ID:20021004214404     3
 GAP=205   RLP  0.74       6.4     7.4  9.0 -0.4335E+02  0.3626E+02 -0.3990E+02E
 GAP=219   BER  0.63       4.2     4.8  7.2 -0.1755E+02  0.1705E+02 -0.1447E+02E
 ACTION:UPD 25-05-19 20:22 OP:fm   STATUS:               ID:20021004214404     I
 OLDACT:UP  25-05-12 15:25 OP:fm   STATUS:               ID:20021004214404     3
 OLDACT:UP  25-04-28 18:41 OP:fm   STATUS:               ID:20021004214404     3
 OLDACT:ARG 25-04-28 16:55 OP:fm   STATUS:               ID:20021004214404     3
 2002-10-04-2144-04S.RLPBA_036                                                 6
 STAT SP IPHASW D HRMM SECON CODA AMPLIT PERI AZIMU VELO AIN AR TRES W  DIS CAZ7
 BGG  SZ IP       2145 43.31                             125    0.2310 9.89 188 
 BGG  SE IS       2145 44.68                             125    0.1010 9.89 188 
 BGG  SE  IAML    2145 44.85      1177.6 0.16                          9.89 188 
 FSH  SZ IP       2145 46.24                             103    0.0210 30.0 216 
 FSH  SE IS       2145 49.66                             103   -0.3810 30.0 216 
 KOE  SZ IP       2145 46.47                             103    0.1610 30.4  61 
 KOE  SE IS       2145 49.90                             103   -0.3110 30.4  61 
 FACH SZ IP       2145 49.24                              99    0.4310 45.9  81 
 FACH SE IS       2145 54.30                              99   -0.2510 45.9  81 
                                                                                
 2002 1023 1115 37.3 L  50.382   7.355  8.0  RLP  4 0.1 2.1LRLP                1
 OLDACT:UP  25-05-17 20:02 OP:fm   STATUS:               ID:20021023111404     3
 GAP=137   RLP  0.40       3.4     2.2 15.2 -0.3384E+01  0.1786E+02 -0.4706E+02E
 GAP=142   BER  0.61       1.7     2.2  6.1  0.5765E+00  0.2944E-01  0.4977E+00E
 ACTION:UPD 25-05-19 20:22 OP:fm   STATUS:               ID:20021023111404     I
 OLDACT:UP  25-05-17 20:01 OP:fm   STATUS:               ID:20021023111404     3
 OLDACT:UP  25-05-12 15:33 OP:fm   STATUS:               ID:20021023111404     3
 OLDACT:UP  25-04-28 18:53 OP:fm   STATUS:               ID:20021023111404     3
 OLDACT:ARG 25-04-28 16:55 OP:fm   STATUS:               ID:20021023111404     3
 2002-10-23-1114-04S.RLPBA_036                                                 6
 STAT SP IPHASW D HRMM SECON CODA AMPLIT PERI AZIMU VELO AIN AR TRES W  DIS CAZ7
 BGG  SZ IP       1115 40.97                             112    0.1410 19.6 184 
 BGG  SE IS       1115 43.45                             112   -0.0110 19.6 184 
 BGG  SE  IAML    1115 44.42       533.4 0.12                          19.6 184 
 KOE  SZ IP       1115 41.96                             107   -0.1210 27.2  80 
 STB  SZ IP       1115 44.85                             100    0.1610 43.5 303 
 HIL  SZ IP       1115 45.60                              99   -0.0510 49.2 259 
 HIL  SN IS       1115 51.72                              99   -0.1210 49.2 259 
                                                                                
 2002 1023 1115 36.9 L  50.385   7.350  6.6  RLP  5 0.3                        1
 OLDACT:UP  25-05-17 20:14 OP:fm   STATUS:               ID:20021023111508     3
 GAP=144   RLP  0.71       4.3     5.5 31.6 -0.1716E+02  0.6934E+02 -0.8823E+02E
 GAP=226   BER  0.98       7.7     6.7 10.7 -0.4447E+02 -0.4162E+02  0.4769E+02E
 ACTION:UPD 25-05-19 20:22 OP:fm   STATUS:               ID:20021023111508     I
 OLDACT:UP  25-05-12 15:37 OP:fm   STATUS:               ID:20021023111508     3
 OLDACT:UP  25-04-28 18:50 OP:fm   STATUS:               ID:20021023111508     3
 OLDACT:UP  25-04-28 18:49 OP:fm   STATUS:               ID:20021023111508     3
 OLDACT:ARG 25-04-28 16:55 OP:fm   STATUS:               ID:20021023111508     3
 2002-10-23-1115-08S.RLPBA_030                                                 6
 STAT SP IPHASW D HRMM SECON CODA AMPLIT PERI AZIMU VELO AIN AR TRES W  DIS CAZ7
 FSH  SZ IP       1115 43.72                             100    0.3210 38.4 207 
 FSH  SN IS       1115 48.08                             100   -0.1510 38.4 207 
 FACH SZ IP       1115 44.85                              98    0.2310 45.9  94 
 BIW  SZ IP       1115 45.34                              97   -0.2610 51.7  42 
 BLI  SZ IP       1115 50.10                              95    0.2110 77.5 258 
 RIVT SZ IP       1115 50.98                              94   -0.3410 86.3 209 
                                                                                
 2002 1031 1445  7.3 L  50.446   7.298  8.8  RLP  4 0.4                        1
 OLDACT:UP  25-05-17 20:22 OP:fm   STATUS:               ID:20021031144440     3
 GAP=212   RLP  0.96       3.6     6.5 24.8 -0.1715E+02  0.1098E+02 -0.5505E+01E
 GAP=213   BER  1.06       3.4     7.0 10.2 -0.1644E+02 -0.3098E+02  0.1363E+02E
 ACTION:UPD 25-05-19 20:22 OP:fm   STATUS:               ID:20021031144440     I
 OLDACT:UP  25-05-12 15:37 OP:fm   STATUS:               ID:20021031144440     3
 OLDACT:UP  25-04-28 18:58 OP:fm   STATUS:               ID:20021031144440     3
 OLDACT:UP  25-04-28 18:57 OP:fm   STATUS:               ID:20021031144440     3
 OLDACT:UP  25-04-28 18:56 OP:fm   STATUS:               ID:20021031144440     3
 OLDACT:ARG 25-04-28 16:55 OP:fm   STATUS:               ID:20021031144440     3
 2002-10-31-1444-40S.RLPBA_024                                                 6
 STAT SP IPHASW D HRMM SECON CODA AMPLIT PERI AZIMU VELO AIN AR TRES W  DIS CAZ7
 FSH  SZ IP       1445 14.27                             102   -0.4110 43.2 198 
 FSH  SN IS       1445 20.34                             102    0.1910 43.2 198 
 BIW  SZ IP       1445 15.29                             100   -0.4310 49.6  50 
 BIW  SN IS       1445 22.43                             100    0.4610 49.6  50 
 FACH SZ IP       1445 15.93                             100    0.1010 50.5 101 
 FACH SE IS       1445 21.83                             100   -0.3410 50.5 101 
 IMS  SZ IP       1445 25.20                              95    0.4610  104 155 
                                                                                
 2002 11 7 1328  3.1 L  50.319   7.346 12.3  RLP  3 0.2 2.6LRLP                1
 OLDACT:UP  25-05-12 15:39 OP:fm   STATUS:               ID:20021107132604     3
 GAP=301   RLP  0.52       4.2     4.0  3.9  0.3752E+01 -0.6333E+01 -0.2852E+01E
 GAP=301   BER  0.52       4.2     4.0  3.9  0.3752E+01 -0.6333E+01 -0.2852E+01E
 ACTION:UPD 25-05-19 20:22 OP:fm   STATUS:               ID:20021107132604     I
 OLDACT:UP  25-04-28 19:06 OP:fm   STATUS:               ID:20021107132604     3
 OLDACT:UP  25-04-28 19:03 OP:fm   STATUS:               ID:20021107132604     3
 OLDACT:ARG 25-04-28 16:55 OP:fm   STATUS:               ID:20021107132604     3
 2002-11-07-1326-04S.RLPBA_042                                                 6
 STAT SP IPHASW D HRMM SECON CODA AMPLIT PERI AZIMU VELO AIN AR TRES W  DIS CAZ7
 BGG  SZ IP       1328  6.21                             134    0.1410 12.6 183 
 BGG  SE IS       1328  8.18                             134   -0.0810 12.6 183 
 BGG  SE  IAML    1328  8.55      1923.9 0.09                          12.6 183 
 FSH  SZ IP       1328  9.02                             111    0.1610 31.9 212 
 FSH  SE IS       1328 13.01                             111   -0.0910 31.9 212 
 IMS  SZ IP       1328 18.00                              98   -0.3010 89.9 154 
 IMS  SE IS       1328 29.70                              98    0.1710 89.9 154 
                                                                                
 2002 1129 0230 49.8 L  50.333   7.449  8.4  RLP  3 0.1 1.6LRLP                1
 OLDACT:UP  25-05-12 15:40 OP:fm   STATUS:               ID:20021129022959     3
 GAP=213   RLP  0.38       3.0     3.7  5.6 -0.9482E+01 -0.4176E+01 -0.1067E+01E
 GAP=213   BER  0.38       3.0     3.7  5.6 -0.9482E+01 -0.4177E+01 -0.1066E+01E
 ACTION:UPD 25-05-19 20:22 OP:fm   STATUS:               ID:20021129022959     I
 OLDACT:UP  25-04-28 19:09 OP:fm   STATUS:               ID:20021129022959     3
 OLDACT:ARG 25-04-28 16:55 OP:fm   STATUS:               ID:20021129022959     3
 2002-11-29-0229-59S.RLPBA_042                                                 6
 STAT SP IPHASW D HRMM SECON CODA AMPLIT PERI AZIMU VELO AIN AR TRES W  DIS CAZ7
 BGG  SZ IP        230 52.77                             118   -0.0810 16.2 210 
 BGG  SE IS        230 55.16                             118    0.0410 16.2 210 
 KOE  SZ IP        230 53.77                             111   -0.0910 22.5  63 
 KOE  SN IS        230 56.93                             111    0.0510 22.5  63 
 KOE  SN  IAML     230 57.62       135.2 0.17                          22.5  63 
 FACH SZ IP        230 56.59                             102    0.1710 38.8  86 
 FACH SE IS        231  1.24                             102   -0.1010 38.8  86 
                                                                                
 2003  112 2258  2.6 L  50.306   7.460 11.8  RLP  4 0.3 2.3LRLP                1
 OLDACT:UP  25-05-12 15:41 OP:fm   STATUS:               ID:20030112225600     3
 GAP=191   RLP  0.73       5.8     6.3  6.3 -0.3365E+02 -0.3305E+01 -0.2725E+00E
 GAP=191   BER  0.73       5.8     6.3  6.3 -0.3365E+02 -0.3295E+01 -0.2815E+00E
 ACTION:UPD 25-05-19 20:22 OP:fm   STATUS:               ID:20030112225600     I
 OLDACT:UP  25-04-28 19:13 OP:fm   STATUS:               ID:20030112225600     3
 OLDACT:UP  25-04-28 19:12 OP:fm   STATUS:               ID:20030112225600     3
 OLDACT:ARG 25-04-28 16:55 OP:fm   STATUS:               ID:20030112225600     3
 2003-01-12-2256-00S.RLPBA_042                                                 6
 STAT SP IPHASW D HRMM SECON CODA AMPLIT PERI AZIMU VELO AIN AR TRES W  DIS CAZ7
 BGG  SZ IP       2258  5.96                             130    0.3210 14.1 218 
 BGG  SE IS       2258  8.12                             130    0.1910 14.1 218 
 BGG  SN  IAML    2258  8.63      1018.9 0.16                          14.1 218 
 KOE  SZ IP       2258  7.10                             117    0.0910 23.5  55 
 KOE  SN IS       2258 10.05                             117   -0.2510 23.5  55 
 FSH  SZ IP       2258  8.84                             108   -0.0410 35.8 225 
 FSH  SN IS       2258 13.09                             108   -0.4610 35.8 225 
 FACH SZ IP       2258  9.61                             107    0.3310 38.4  81 
 FACH SN IS       2258 14.06                             107   -0.1910 38.4  81 
                                                                                
 2003  2 9 1525 59.6 L  50.386   7.479  6.6  RLP  4 0.3 3.3LRLP                1
 OLDACT:UP  25-05-12 15:42 OP:fm   STATUS:               ID:20030209152400     3
 GAP=186   RLP  0.80       2.9     4.4 13.0 -0.8455E+01  0.1740E+02 -0.1668E+02E
 GAP=186   BER  0.80       2.9     4.4 13.0 -0.8455E+01  0.1739E+02 -0.1667E+02E
 ACTION:UPD 25-05-19 20:22 OP:fm   STATUS:               ID:20030209152400     I
 OLDACT:UP  25-04-28 19:17 OP:fm   STATUS:               ID:20030209152400     3
 OLDACT:ARG 25-04-28 16:55 OP:fm   STATUS:               ID:20030209152400     3
 2003-02-09-1524-00S.RLPBA_042                                                 6
 STAT SP IPHASW D HRMM SECON CODA AMPLIT PERI AZIMU VELO AIN AR TRES W  DIS CAZ7
 KOE  SZ IP       1526  3.34                             110    0.3810 18.5  76 
 KOE  SN IS       1526  5.64                             110    0.2110 18.5  76 
 BGG  SZ IP       1526  3.64                             107    0.1110 22.4 207 
 BGG  SE IS       1526  6.19                             107   -0.2410 22.4 207 
 BGG  SE  IAML    1526  6.36      6837.2 0.17                          22.4 207 
 FACH SZ IP       1526  6.13                             100    0.2710 36.7  95 
 FACH SE IS       1526 10.03                             100   -0.4510 36.7  95 
 BIW  SZ IP       1526  7.52                              98    0.1110 46.0  33 
 BIW  SN IS       1526 12.79                              98   -0.3910 46.0  33 
                                                                                
 2003  331 0313  0.4 L  50.223   7.805  5.3  RLP  4 0.1 1.4LRLP                1
 OLDACT:UP  25-05-12 15:46 OP:fm   STATUS:               ID:20030331031200     3
 GAP=207   RLP  0.44       2.1     2.2  9.3 -0.2951E+01  0.4442E+01 -0.1125E+01E
 GAP=219   BER  0.34       2.1     2.1  3.9 -0.3507E+01  0.3153E+01 -0.3829E+01E
 ACTION:UPD 25-05-19 20:22 OP:fm   STATUS:               ID:20030331031200     I
 OLDACT:UP  25-05-12 15:45 OP:fm   STATUS:               ID:20030331031200     3
 OLDACT:UP  25-05-12 15:45 OP:fm   STATUS:               ID:20030331031200     3
 OLDACT:UP  25-05-12 15:43 OP:fm   STATUS:               ID:20030331031200     3
 OLDACT:UP  25-04-28 19:21 OP:fm   STATUS:               ID:20030331031200     3
 OLDACT:ARG 25-04-28 16:55 OP:fm   STATUS:               ID:20030331031200     3
 2003-03-31-0312-00S.RLPBA_042                                                 6
 STAT SP IPHASW D HRMM SECON CODA AMPLIT PERI AZIMU VELO AIN AR TRES W  DIS CAZ7
 FACH SZ IP        313  3.94                             105    0.0410 20.0  42 
 FACH SE IS        313  6.54                             105    0.0710 20.0  42 
 BGG  SZ IP        313  6.25                              99    0.1610 33.4 267 
 BGG  SE IS        313 10.15                              99   -0.1310 33.4 267 
 BGG  SE  IAML     313 10.50        48.0 0.20                          33.4 267 
 WBC  HZ IP        313  6.68                              98   -0.2010 38.2  60 
 BIW  SZ IP        313 10.12                              95    0.1810 56.5   2 
 BIW  SN IS        313 16.85                              95   -0.1210 56.5   2 
                                                                                
