 2004  5 4 1925 57.9 L  50.089   8.519 10.0  RLP  7 0.3 2.6LRLP                1
 OLDACT:UP  25-05-12 17:50 OP:fm   STATUS:               ID:20040504192500     3
 GAP=247   RLP  0.67       2.5     5.8  4.4 -0.3803E+01 -0.1164E+02  0.4194E+01E
 GAP=307   BER  1.07       6.5    11.9726.5 -0.4609E+02 -0.4113E+04  0.1687E+04E
 ACTION:UPD 25-05-19 20:22 OP:fm   STATUS:               ID:20040504192500     I
 OLDACT:UP  25-05-12 17:46 OP:fm   STATUS:               ID:20040504192500     3
 OLDACT:UP  25-04-28 21:34 OP:fm   STATUS:               ID:20040504192500     3
 OLDACT:ARG 25-04-28 16:56 OP:fm   STATUS:               ID:20040504192500     3
 2004-05-04-1925-00S.RLPBA_036                                                 6
 STAT SP IPHASW D HRMM SECON CODA AMPLIT PERI AZIMU VELO AIN AR TRES W  DIS CAZ7
 WBE  HE IS       1926  5.26                             113   -0.3410 24.2 275 
 WBC  HZ IP       1926  4.58                             105    0.0410 38.3 332 
 WBC  HE IS       1926  9.27                             105   -0.1710 38.3 332 
 FACH SZ IP       1926  6.17                             102    0.0810 47.8 309 
 IMS  SZ IP       1926  9.82                              98   -0.0710 70.8 219 
 BGG  SZ IP       1926 12.80                              97    0.5110 85.5 279 
 BGG  SN IS       1926 23.09                              97    0.1810 85.5 279 
 BGG  SN  IAML    1926 26.79       228.4 0.19                          85.5 279 
 STB  SZ IP       1926 18.92                              47   -0.03 8  132 296 
 RIVT SZ IP       1926 18.74                              47   -0.34 8  133 252 
                                                                                
 2004  522 0519  4.3 L  50.413   7.415  2.9  RLP  6 0.3 3.8LRLP                1
 OLDACT:UP  25-05-12 17:54 OP:fm   STATUS:               ID:20040522051800     3
 GAP=104   RLP  0.75       1.7     2.2  8.7 -0.4041E+00 -0.2357E+00  0.2545E+00E
 GAP=104   BER  0.77       1.7     2.4  6.7 -0.3660E+00 -0.7001E+00 -0.5759E-01E
 ACTION:UPD 25-05-19 20:22 OP:fm   STATUS:               ID:20040522051800     I
 OLDACT:UP  25-04-28 21:36 OP:fm   STATUS:               ID:20040522051800     3
 OLDACT:ARG 25-04-28 16:56 OP:fm   STATUS:               ID:20040522051800     3
 2004-05-22-0518-00S.RLPBA_036                                                 6
 STAT SP IPHASW D HRMM SECON CODA AMPLIT PERI AZIMU VELO AIN AR TRES W  DIS CAZ7
 BGG  SZ IP        519  8.45                              97    0.2010 23.6 194 
 BGG  SE IS        519 11.02                              97   -0.1810 23.6 194 
 BGG  SE  IAML     519 11.36     22896.0 0.39                          23.6 194 
 FACH SZ IP        519 11.61                              94    0.3710 41.6  98 
 FACH SE IS        519 16.14                              94   -0.2610 41.6  98 
 STB  SZ IP        519 12.34                              94    0.4510 45.5 297 
 STB  SN IS        519 17.25                              94   -0.2910 45.5 297 
 BIW  SZ IP        519 12.28                              94    0.2410 46.3  40 
 BIW  SE IS        519 17.52                              94   -0.2810 46.3  40 
 HIL  SZ IP        519 13.16                              93   -0.1910 54.1 256 
 PEB  SZ IP        519 28.31                              47   -0.13 7  151 172 
                                                                                
 2004  531 2352  2.7 L  49.688   8.484  6.7  RLP  6 0.3 2.0LRLP                1
 OLDACT:UP  25-05-12 17:59 OP:fm   STATUS:               ID:20040531235000     3
 GAP=245   RLP  0.83       2.4     6.9  4.0 -0.3630E+01 -0.3461E+01  0.3142E+01E
 GAP=274   BER  0.63       3.1     8.5  3.0 -0.1961E+02 -0.6673E+01  0.4229E+01E
 ACTION:UPD 25-05-19 20:22 OP:fm   STATUS:               ID:20040531235000     I
 OLDACT:UP  25-04-28 21:37 OP:fm   STATUS:               ID:20040531235000     3
 OLDACT:ARG 25-04-28 16:56 OP:fm   STATUS:               ID:20040531235000     3
 2004-05-31-2350-00S.RLPBA_033                                                 6
 STAT SP IPHASW D HRMM SECON CODA AMPLIT PERI AZIMU VELO AIN AR TRES W  DIS CAZ7
 IMS  SZ IP       2352 10.53                              99    0.4810 43.4 256 
 IMS  SN IS       2352 15.01                              99   -0.4910 43.4 256 
 WBE  HZ IP       2352 11.18                              97   -0.1910 51.5 335 
 WBE  HE IS       2352 17.52                              97   -0.2710 51.5 335 
 PEB  SZ IP       2352 17.80                              94    0.0310 90.0 220 
 BGG  SN IS       2352 32.40                              94    0.4910  100 305 
 BGG  SN  IAML    2352 32.98        50.9 0.29                           100 305 
 RIVT SZ IP       2352 23.21                              47    0.09 8  124 272 
 DUP  SZ IP       2352 23.39                              47   -0.05 8  127 257 
 DUP  SN IS       2352 38.68                              47   -0.11 8  127 257 
                                                                                
 2004  8 5 1247  3.9 L  50.181   7.501  8.3  RLP  4 0.1 2.4LRLP                1
 OLDACT:UP  25-05-12 18:01 OP:fm   STATUS:               ID:20040805124600     3
 GAP=223   RLP  0.46       3.5     2.3  4.6 -0.4470E+01 -0.5080E+01  0.1527E+00E
 GAP=229   BER  0.35       3.0     3.3468.3 -0.6653E+01 -0.1353E+04  0.7051E+03E
 ACTION:UPD 25-05-19 20:22 OP:fm   STATUS:               ID:20040805124600     I
 OLDACT:UP  25-04-28 21:41 OP:fm   STATUS:               ID:20040805124600     3
 OLDACT:ARG 25-04-28 16:56 OP:fm   STATUS:               ID:20040805124600     3
 2004-08-05-1246-00S.RLPBA_033                                                 6
 STAT SP IPHASW D HRMM SECON CODA AMPLIT PERI AZIMU VELO AIN AR TRES W  DIS CAZ7
 BGG  SZ IP       1247  6.31                             125    0.0010 12.0 284 
 BGG  SN IS       1247  8.13                             125    0.0010 12.0 284 
 BGG  SN  IAML    1247  8.31      1494.6 0.11                          12.0 284 
 KOE  SZ IP       1247  9.58                             105    0.1910 31.8  31 
 KOE  SE IS       1247 13.55                             105    0.0610 31.8  31 
 FACH SZ IP       1247 10.86                             102    0.1510 40.2  61 
 FACH SE IS       1247 15.53                             102   -0.2510 40.2  61 
 STB  SZ IP       1247 14.78                              97   -0.1510 65.8 315 
                                                                                
 2004  812 1635 28.7 L  49.849   8.452  2.4  RLP  5 0.2 2.0LRLP                1
 OLDACT:UP  25-05-12 18:03 OP:fm   STATUS:               ID:20040812163400     3
 GAP=247   RLP  0.53       1.6     5.7  3.2 -0.5791E+01  0.3445E+00  0.1380E+01E
 GAP=245   BER  0.57       1.7     6.2  3.0 -0.6444E+01  0.6061E+00  0.1522E+01E
 ACTION:UPD 25-05-19 20:22 OP:fm   STATUS:               ID:20040812163400     I
 OLDACT:UP  25-04-28 21:43 OP:fm   STATUS:               ID:20040812163400     3
 OLDACT:ARG 25-04-28 16:56 OP:fm   STATUS:               ID:20040812163400     3
 2004-08-12-1634-00S.RLPBA_030                                                 6
 STAT SP IPHASW D HRMM SECON CODA AMPLIT PERI AZIMU VELO AIN AR TRES W  DIS CAZ7
 IMS  SZ IP       1635 36.78                              93   -0.1510 48.8 235 
 IMS  SN IS       1635 43.00                              93    0.0110 48.8 235 
 WBC  HZ IP       1635 39.21                              92    0.1110 62.0 348 
 WBC  HE IS       1635 46.59                              92   -0.1810 62.0 348 
 KOE  SZ IP       1635 42.69                              92    0.1810 82.3 322 
 KOE  SN IS       1635 52.82                              92    0.1110 82.3 322 
 KOE  SN  IAML    1635 55.83        71.0 0.42                          82.3 322 
 BIW  SZ IP       1635 46.49                              91   -0.20 9  107 336 
 DUP  SZ IP       1635 50.77                              47    0.41 8  130 249 
 DUP  SE IS       1636  6.12                              47   -0.24 8  130 249 
                                                                                
 2004  820 2335 18.4 L  49.846   8.453  5.7  RLP  5 0.1 2.5LRLP                1
 OLDACT:UP  25-05-12 18:04 OP:fm   STATUS:               ID:20040820233400     3
 GAP=247   RLP  0.39       1.1     3.3  3.7 -0.1573E+01 -0.2824E+01  0.9075E+00E
 GAP=247   BER  0.38       1.3     4.4  4.7 -0.3723E+01  0.1453E+02 -0.3314E+01E
 ACTION:UPD 25-05-19 20:22 OP:fm   STATUS:               ID:20040820233400     I
 OLDACT:UP  25-04-28 21:45 OP:fm   STATUS:               ID:20040820233400     3
 OLDACT:ARG 25-04-28 16:56 OP:fm   STATUS:               ID:20040820233400     3
 2004-08-20-2334-00S.RLPBA_036                                                 6
 STAT SP IPHASW D HRMM SECON CODA AMPLIT PERI AZIMU VELO AIN AR TRES W  DIS CAZ7
 IMS  SZ IP       2335 26.42                              97   -0.1610 48.6 235 
 IMS  SN IS       2335 32.67                              97    0.0110 48.6 235 
 WBC  HZ IP       2335 28.91                              95    0.0810 62.4 348 
 WBC  HN IS       2335 36.41                              95   -0.1610 62.4 348 
 KOE  SZ IP       2335 32.39                              94    0.1710 82.6 322 
 KOE  SN IS       2335 42.40                              94   -0.0810 82.6 322 
 BGG  SZ IP       2335 33.49                              94    0.1710 89.4 297 
 BGG  SE IS       2335 44.40                              94    0.0110 89.4 297 
 BGG  SE  IAML    2335 47.76       192.5 0.16                          89.4 297 
 RIVT SZ IP       2335 38.69                              47   -0.04 8  123 263 
                                                                                
 2004  9 5 1006  7.9 L  49.810   8.397 15.7  RLP  4 0.2 1.8LRLP                1
 OLDACT:UP  25-05-12 18:05 OP:fm   STATUS:               ID:20040905100600     3
 GAP=272   RLP  0.55       1.9     5.9  2.9  0.4933E+01 -0.2864E+01 -0.2370E+01E
 GAP=272   BER  0.55       1.9     5.9  2.9  0.4933E+01 -0.2864E+01 -0.2370E+01E
 ACTION:UPD 25-05-19 20:22 OP:fm   STATUS:               ID:20040905100600     I
 OLDACT:UP  25-04-28 21:47 OP:fm   STATUS:               ID:20040905100600     3
 OLDACT:ARG 25-04-28 16:56 OP:fm   STATUS:               ID:20040905100600     3
 2004-09-05-1006-00S.RLPBA_039                                                 6
 STAT SP IPHASW D HRMM SECON CODA AMPLIT PERI AZIMU VELO AIN AR TRES W  DIS CAZ7
 IMS  SZ IP       10 6 15.26                             110   -0.3310 43.1 236 
 IMS  SN IS       10 6 21.48                             110    0.1910 43.1 236 
 BGG  SZ IP       10 6 22.58                              68    0.0610 87.8 300 
 BGG  SN IS       10 6 33.25                              68   -0.0910 87.8 300 
 BGG  SN  IAML    10 6 33.70        40.1 0.14                          87.8 300 
 FSH  SZ IP       10 6 24.32                              68    0.3310 97.1 288 
 FSH  SN IS       10 6 35.77                              68   -0.1310 97.1 288 
 PEB  SZ IP       10 6 23.99                              68   -0.0410 97.4 212 
 PEB  SN IS       10 6 35.99                              68    0.0110 97.4 212 
                                                                                
 2004  924 1206 12.5 L  49.752   7.366 12.1  RLP  4 0.2                        1
 OLDACT:UP  25-05-17 22:24 OP:fm   STATUS:               ID:20040924120552     3
 GAP=142   RLP  0.61       7.6    14.7 41.7  0.1070E+03  0.5819E+03  0.2796E+03E
 GAP=247   BER  0.62       2.9     4.8906.9  0.1018E+02 -0.4557E+03 -0.2536E+03E
 ACTION:UPD 25-05-19 20:22 OP:fm   STATUS:               ID:20040924120552     I
 OLDACT:UP  25-05-12 18:07 OP:fm   STATUS:               ID:20040924120552     3
 OLDACT:UP  25-04-28 21:55 OP:fm   STATUS:               ID:20040924120552     3
 OLDACT:ARG 25-04-28 16:56 OP:fm   STATUS:               ID:20040924120552     3
 2004-09-24-1205-52S.RLPBA_024                                                 6
 STAT SP IPHASW D HRMM SECON CODA AMPLIT PERI AZIMU VELO AIN AR TRES W  DIS CAZ7
 FSH  SZ IP       12 6 19.34                             107   -0.2310 40.6 333 
 IMS  SZ IP       12 6 19.71                             106   -0.1610 42.4 114 
 IMS  SN IS       12 6 25.55                             106    0.2110 42.4 114 
 PEB  SZ IP       12 6 25.86                              99   -0.1110 79.8 163 
 BLI  SZ IP       12 6 28.63                              97    0.3010 94.0 305 
                                                                                
 2004 1122 2330 58.4 L  50.317   7.476  4.1  RLP  4 0.2 2.0LRLP                1
 OLDACT:UP  25-05-12 18:12 OP:fm   STATUS:               ID:20041122233000     3
 GAP=223   RLP  0.48       5.8     5.5  3.4 -0.3077E+02 -0.1244E+02  0.1365E+02E
 GAP=219   BER  0.50       6.2     5.7  3.6 -0.3377E+02 -0.1586E+02  0.1829E+02E
 ACTION:UPD 25-05-19 20:22 OP:fm   STATUS:               ID:20041122233000     I
 OLDACT:UP  25-04-28 21:58 OP:fm   STATUS:               ID:20041122233000     3
 OLDACT:ARG 25-04-28 16:56 OP:fm   STATUS:               ID:20041122233000     3
 2004-11-22-2330-00S.RLPBA_036                                                 6
 STAT SP IPHASW D HRMM SECON CODA AMPLIT PERI AZIMU VELO AIN AR TRES W  DIS CAZ7
 BGG  SZ IP       2331  0.88                             105   -0.2410 15.8 219 
 BGG  SE IS       2331  3.28                             105    0.1310 15.8 219 
 BGG  SE  IAML    2331  4.10       526.7 0.11                          15.8 219 
 FACH SZ IP       2331  4.69                              96    0.0610 37.1  83 
 FACH SN IS       2331  9.38                              96    0.1310 37.1  83 
 WBC  HZ IP       2331  8.05                              94    0.1010 57.1  81 
 WBC  HE IS       2331 14.81                              94   -0.2310 57.1  81 
 PEB  SZ IP       2331 21.30                              47    0.23 7  140 174 
 PEB  SE IS       2331 37.73                              47   -0.13 7  140 174 
                                                                                
 2005  210 1532 24.4 L  49.361   8.402 12.1  RLP  5 0.3                        1
 OLDACT:UP  25-05-12 18:13 OP:fm   STATUS:               ID:20050210153153     3
 GAP=253   RLP  0.70       2.5     6.3  2.4 -0.5670E+01 -0.4524E+01 -0.1069E+01E
 GAP=252   BER  0.77       2.7     6.3  2.4 -0.6441E+01 -0.3556E+01 -0.1322E+01E
 ACTION:UPD 25-05-19 20:22 OP:fm   STATUS:               ID:20050210153153     I
 OLDACT:UP  25-04-28 22:10 OP:fm   STATUS:               ID:20050210153153     3
 OLDACT:ARG 25-04-28 16:56 OP:fm   STATUS:               ID:20050210153153     3
 2005-02-10-1531-53S.RLPBA_030                                                 6
 STAT SP IPHASW D HRMM SECON CODA AMPLIT PERI AZIMU VELO AIN AR TRES W  DIS CAZ7
 IMS  SZ IP       1532 32.33                             105    0.1710 44.6 306 
 IMS  SN IS       1532 37.98                             105    0.0810 44.6 306 
 PEB  SZ IP       1532 34.78                             101   -0.0910 61.4 238 
 PEB  SN IS       1532 42.30                             101   -0.3110 61.4 238 
 FACH SZ IP       1532 43.12                              47    0.08 9  115 345 
 FACH SE IS       1532 56.32                              47   -0.50 9  115 345 
 DUP  SZ IP       1532 43.97                              47    0.55 9  117 273 
 DUP  SN IS       1532 57.71                              47    0.22 9  117 273 
 RIVT SZ IP       1532 44.32                              47    0.02 8  125 289 
 RIVT SE IS       1532 58.85                              47   -0.16 8  125 289 
                                                                                
 2005  216 1457 19.3 L  49.960   7.479 13.1  RLP  6 0.3 1.8LRLP                1
 OLDACT:UP  25-05-12 18:16 OP:fm   STATUS:               ID:20050216145600     3
 GAP= 92   RLP  0.76       2.3     4.3  4.3  0.7284E+01  0.1212E+02  0.6579E+01E
 GAP=168   BER  0.77       5.7    10.6  5.5  0.5761E+02  0.5138E+02  0.2812E+02E
 ACTION:UPD 25-05-19 20:22 OP:fm   STATUS:               ID:20050216145600     I
 OLDACT:UP  25-04-28 22:13 OP:fm   STATUS:               ID:20050216145600     3
 OLDACT:ARG 25-04-28 16:56 OP:fm   STATUS:               ID:20050216145600     3
 2005-02-16-1456-00S.RLPBA_036                                                 6
 STAT SP IPHASW D HRMM SECON CODA AMPLIT PERI AZIMU VELO AIN AR TRES W  DIS CAZ7
 BGG  SZ IP       1457 24.86                             114    0.2310 29.2 340 
 BGG  SN IS       1457 28.33                             114   -0.2610 29.2 340 
 BGG  SN  IAML    1457 28.54       134.1 0.15                          29.2 340 
 IMS  SZ IP       1457 28.54                             105    0.4710 50.8 143 
 IMS  SE IS       1457 34.49                             105   -0.0810 50.8 143 
 WBE  HZ IP       1457 28.16                             104   -0.2410 53.0  72 
 RIVT SZ IP       1457 29.14                             103   -0.1710 58.6 242 
 BLI  SZ IP       1457 34.64                              68    0.1310 90.4 290 
 BLI  SN IS       1457 45.79                              68    0.0110 90.4 290 
 PEB  SZ IP       1457 36.40                              68    0.3310  101 171 
 PEB  SE IS       1457 48.06                              68   -0.4310  101 171 
                                                                                
 2005  4 7 1222  8.5 L  50.336   7.432 16.1  RLP  6 0.2 2.0LRLP                1
 OLDACT:UP  25-05-12 18:18 OP:fm   STATUS:               ID:20050407122000     3
 GAP=118   RLP  0.58       3.1     3.3  3.3 -0.7576E+01  0.6806E+01 -0.8399E+01E
 GAP=196   BER  0.46       1.5     3.1  4.8 -0.3328E+01 -0.4106E+01  0.1506E+01E
 ACTION:UPD 25-05-19 20:22 OP:fm   STATUS:               ID:20050407122000     I
 OLDACT:UP  25-04-28 22:16 OP:fm   STATUS:               ID:20050407122000     3
 OLDACT:ARG 25-04-28 16:56 OP:fm   STATUS:               ID:20050407122000     3
 2005-04-07-1220-00S.RLPBA_030                                                 6
 STAT SP IPHASW D HRMM SECON CODA AMPLIT PERI AZIMU VELO AIN AR TRES W  DIS CAZ7
 BGG  SZ IP       1222 12.60                             135    0.3510 16.0 205 
 BGG  SN IS       1222 14.80                             135   -0.2610 16.0 205 
 BGG  SN  IAML    1222 14.90       337.8 0.09                          16.0 205 
 FACH SE IS       1222 21.08                             112    0.0810 40.1  87 
 STB  SZ IP       1222 17.54                              68    0.1910 50.9 305 
 BIW  SZ IP       1222 17.71                              68    0.1010 52.5  33 
 BIW  SE IS       1222 24.14                              68   -0.2510 52.5  33 
 BLI  SZ IP       1222 22.13                              68   -0.1210 82.3 262 
 RIVT SZ IP       1222 22.52                              68   -0.0810 84.8 215 
                                                                                
