 2006  714 1230  1.1 L  49.619   6.794 10.0  RLP  4 0.3 2.5LRLP                1
 OLDACT:UP  25-05-17 17:36 OP:fm   STATUS:               ID:20060714122800     3
 GAP=166   RLP  0.90       2.0     8.3  6.1  0.9765E+01 -0.2598E+02 -0.2187E+01E
 GAP=156   BER  0.38       1.1     4.2 17.3 -0.6452E+00 -0.5628E+02  0.1068E+02E
 ACTION:UPD 25-05-19 20:22 OP:fm   STATUS:               ID:20060714122800     I
 OLDACT:UP  25-05-17 17:34 OP:fm   STATUS:               ID:20060714122800     3
 OLDACT:UP  25-05-17 17:22 OP:fm   STATUS:               ID:20060714122800     3
 OLDACT:UP  25-05-17 17:21 OP:fm   STATUS:               ID:20060714122800     3
 OLDACT:UP  25-05-17 17:19 OP:fm   STATUS:               ID:20060714122800     3
 OLDACT:UP  25-05-12 18:56 OP:fm   STATUS:               ID:20060714122800     3
 OLDACT:UP  25-05-12 18:55 OP:fm   STATUS:               ID:20060714122800     3
 OLDACT:UP  25-04-28 23:09 OP:fm   STATUS:               ID:20060714122800     3
 OLDACT:ARG 25-04-28 16:56 OP:fm   STATUS:               ID:20060714122800     3
 2006-07-14-1228-00S.RLPBA_027                                                 6
 STAT SP IPHASW D HRMM SECON CODA AMPLIT PERI AZIMU VELO AIN AR TRES W  DIS CAZ7
 RIVT SZ IP       1230  3.72                             135    0.1810 10.0 348 
 RIVT SE IS       1230  5.43                             135    0.1110 10.0 348 
 DUP  SZ IP       1230  5.42                             114    0.0510 23.1 181 
 DUP  SN IS       1230  8.23                             114   -0.2710 23.1 181 
 HIL  SZ IP       1230 14.28                              98    0.4310 75.3 354 
 HIL  SE IS       1230 22.62                              98   -0.6410 75.3 354 
 HIL  SE  IAML    1230 23.21       202.6 0.30                          75.3 354 
 PEB  SZ IP       1230 16.57                              96    0.3710 89.6 133 
 PEB  SE IS       1230 27.12                              96   -0.2310 89.6 133 
                                                                                
 2006  9 1 1929 16.9 L  49.626   8.381 18.3  RLP  4 0.3                        1
 OLDACT:UP  25-05-12 18:58 OP:fm   STATUS:               ID:20060901192857     3
 GAP=215   RLP  0.80       2.8    11.3 16.5 -0.2443E+02 -0.1478E+03  0.2456E+02E
 GAP=215   BER  0.80       2.8    11.3 16.4 -0.2442E+02 -0.1463E+03  0.2435E+02E
 ACTION:UPD 25-05-19 20:22 OP:fm   STATUS:               ID:20060901192857     I
 OLDACT:UP  25-04-28 23:13 OP:fm   STATUS:               ID:20060901192857     3
 OLDACT:ARG 25-04-28 16:56 OP:fm   STATUS:               ID:20060901192857     3
 2006-09-01-1928-57S.RLPBA_021                                                 6
 STAT SP IPHASW D HRMM SECON CODA AMPLIT PERI AZIMU VELO AIN AR TRES W  DIS CAZ7
 IMS  SZ IP       1929 23.60                             111    0.1810 34.9 264 
 IMS  SN IS       1929 28.27                             111   -0.0010 34.9 264 
 TNS  HZ IP       1929 28.39                              95    0.1210 66.5   4 
 TNS  HE IS       1929 36.35                              95   -0.3710 66.5   4 
 PEB  SZ IP       1929 30.13                              93   -0.1710 80.0 219 
 PEB  SE IS       1929 40.09                              93   -0.1510 80.0 219 
 FACH SZ IP       1929 31.81                              93    0.6310 85.8 341 
 FACH SE IS       1929 41.53                              93   -0.2410 85.8 341 
                                                                                
 2006  922 1148 12.2 L  50.339   7.440  6.9  RLP  5 0.3 2.8LRLP                1
 OLDACT:UP  25-05-12 19:03 OP:fm   STATUS:               ID:20060922114600     3
 GAP=143   RLP  0.90       4.2     2.8 22.8  0.3146E+00  0.1749E+02 -0.3290E+02E
 GAP=145   BER  0.84       3.8     2.5  8.4  0.1413E+01  0.2634E+00 -0.1100E+02E
 ACTION:UPD 25-05-19 20:22 OP:fm   STATUS:               ID:20060922114600     I
 OLDACT:UP  25-05-12 19:01 OP:fm   STATUS:               ID:20060922114600     3
 OLDACT:UP  25-05-12 18:58 OP:fm   STATUS:               ID:20060922114600     3
 OLDACT:UP  25-04-28 23:16 OP:fm   STATUS:               ID:20060922114600     3
 OLDACT:ARG 25-04-28 16:56 OP:fm   STATUS:               ID:20060922114600     3
 2006-09-22-1146-00S.RLPBA_027                                                 6
 STAT SP IPHASW D HRMM SECON CODA AMPLIT PERI AZIMU VELO AIN AR TRES W  DIS CAZ7
 BGG  SZ IP       1148 15.50                             113    0.3210 16.5 206 
 FACH SZ IP       1148 19.14                             100    0.2710 39.5  87 
 FACH SE IS       1148 23.42                             100   -0.4110 39.5  87 
 STB  SZ IP       1148 21.36                              98    0.5410 51.2 304 
 STB  SN IS       1148 27.09                              98   -0.1210 51.2 304 
 HIL  SZ IP       1148 21.49                              97    0.1010 54.5 265 
 HIL  SE IS       1148 27.86                              97   -0.3410 54.5 265 
 HIL  SE  IAML    1148 28.22       774.0 0.18                          54.5 265 
 BLI  SZ IP       1148 25.74                              95   -0.3710 83.0 262 
                                                                                
 2006 10 1 0000  6.9 L  50.528   7.118 16.5  RLP  3 0.1 2.0LRLP                1
 OLDACT:UP  25-05-12 19:06 OP:fm   STATUS:               ID:20061001000000     3
 GAP=300   RLP  0.32       3.0     5.2  5.4 -0.8980E+01 -0.1565E+02  0.1437E+02E
 GAP=300   BER  0.32       3.0     5.2  5.4 -0.8987E+01 -0.1567E+02  0.1438E+02E
 ACTION:UPD 25-05-19 20:22 OP:fm   STATUS:               ID:20061001000000     I
 OLDACT:UP  25-04-28 23:20 OP:fm   STATUS:               ID:20061001000000     3
 OLDACT:ARG 25-04-28 16:56 OP:fm   STATUS:               ID:20061001000000     3
 2006-10-01-0000-00S.RLPBA_027                                                 6
 STAT SP IPHASW D HRMM SECON CODA AMPLIT PERI AZIMU VELO AIN AR TRES W  DIS CAZ7
 STB  SZ IP        0 0 11.40                             123    0.0610 21.0 291 
 STB  SN IS        0 0 14.63                             123   -0.0310 21.0 291 
 STB  SN  IAML     0 0 14.83       306.9 0.16                          21.0 291 
 HIL  SZ IP        0 0 14.27                              99    0.0310 40.8 230 
 HIL  SN IS        0 0 19.68                              99   -0.0210 40.8 230 
 BLI  SZ IP        0 0 18.29                              91   -0.0910 67.6 241 
 BLI  SE IS        0 0 26.96                              91    0.0510 67.6 241 
                                                                                
 2006 10 1 0017  4.2 L  50.503   7.199  7.9  RLP  5 0.2 2.2LRLP                1
 OLDACT:UP  25-05-12 19:09 OP:fm   STATUS:               ID:20061001001600     3
 GAP=231   RLP  0.60       2.7     4.1 10.3  0.7699E+01 -0.6458E+00  0.4882E+01E
 GAP=232   BER  0.41       2.1     3.2  4.8  0.5258E+01  0.7999E+01  0.4934E+01E
 ACTION:UPD 25-05-19 20:22 OP:fm   STATUS:               ID:20061001001600     I
 OLDACT:UP  25-05-12 19:07 OP:fm   STATUS:               ID:20061001001600     3
 OLDACT:UP  25-04-28 23:22 OP:fm   STATUS:               ID:20061001001600     3
 OLDACT:ARG 25-04-28 16:56 OP:fm   STATUS:               ID:20061001001600     3
 2006-10-01-0016-00S.RLPBA_027                                                 6
 STAT SP IPHASW D HRMM SECON CODA AMPLIT PERI AZIMU VELO AIN AR TRES W  DIS CAZ7
 STB  SZ IP        017  9.05                             106    0.1110 27.4 292 
 STB  SE IS        017 12.32                             106   -0.1610 27.4 292 
 STB  SE  IAML     017 12.47       446.1 0.11                          27.4 292 
 BGG  SZ IP        017 10.33                             103    0.2610 34.4 163 
 BGG  SN IS        017 14.28                             103   -0.1610 34.4 163 
 HIL  SZ IP        017 11.93                             100    0.3010 43.8 238 
 HIL  SN IS        017 17.30                             100    0.1410 43.8 238 
 BLI  SZ IP        017 15.94                              96   -0.2510 71.4 245 
 RIVT SZ IP        017 19.64                              95   -0.2410 93.8 200 
                                                                                
 2006 1118 0826  9.7 L  50.293   7.483  6.7  RLP  4 0.2 2.4LRLP                1
 OLDACT:UP  25-05-12 19:11 OP:fm   STATUS:               ID:20061118082400     3
 GAP=132   RLP  0.58       2.5     2.6  2.8 -0.3301E+01 -0.2462E+01  0.2390E+01E
 GAP=134   BER  0.63       3.6     2.9  3.8 -0.2025E+01 -0.7853E+00  0.9862E+01E
 ACTION:UPD 25-05-19 20:22 OP:fm   STATUS:               ID:20061118082400     I
 OLDACT:UP  25-04-28 23:25 OP:fm   STATUS:               ID:20061118082400     3
 OLDACT:ARG 25-04-28 16:56 OP:fm   STATUS:               ID:20061118082400     3
 2006-11-18-0824-00S.RLPBA_030                                                 6
 STAT SP IPHASW D HRMM SECON CODA AMPLIT PERI AZIMU VELO AIN AR TRES W  DIS CAZ7
 BGG  SZ IP        826 12.51                             116    0.1610 14.2 227 
 BGG  SE IS        826 14.17                             116   -0.1310 14.2 227 
 BGG  SE  IAML     826 14.49      1556.7 0.17                          14.2 227 
 FACH SZ IP        826 16.30                             100    0.3010 37.0  79 
 FACH SE IS        826 20.42                             100   -0.2410 37.0  79 
 STB  SZ IP        826 19.14                              97   -0.1210 56.7 307 
 PEB  SZ IP        826 32.07                              47    0.30 8  137 174 
 PEB  SN IS        826 47.83                              47   -0.25 8  137 174 
                                                                                
 2007  111 0324 40.1 L  50.178   7.710  6.7  RLP  5 0.2                        1
 OLDACT:UP  25-05-12 19:13 OP:fm   STATUS:               ID:20070111032352     3
 GAP=122   RLP  0.60       1.6     2.8  3.2 -0.5028E+00 -0.1517E+01  0.1844E+01E
 GAP=150   BER  0.62       2.6     3.2  9.2  0.2276E+01  0.1281E+02  0.1432E+02E
 ACTION:UPD 25-05-19 20:22 OP:fm   STATUS:               ID:20070111032352     I
 OLDACT:UP  25-04-28 23:28 OP:fm   STATUS:               ID:20070111032352     3
 OLDACT:ARG 25-04-28 16:57 OP:fm   STATUS:               ID:20070111032352     3
 2007-01-11-0323-52S.RLPBA_027                                                 6
 STAT SP IPHASW D HRMM SECON CODA AMPLIT PERI AZIMU VELO AIN AR TRES W  DIS CAZ7
 FACH SZ IP        324 44.85                             103   -0.1310 28.3  46 
 FSH  SZ IP        324 47.85                              99    0.2010 44.5 255 
 FSH  SE IS        324 53.05                              99   -0.1810 44.5 255 
 BIW  SZ IP        324 50.53                              96   -0.0410 62.1   8 
 IMS  SZ IP        324 51.69                              96    0.3910 66.4 168 
 IMS  SE IS        324 59.31                              96   -0.2610 66.4 168 
 PEB  SZ IP        325  0.72                              47    0.20 8  124 181 
 PEB  SN IS        325 15.45                              47   -0.17 8  124 181 
                                                                                
 2007  111 0324 40.6 L  50.169   7.695  8.1  RLP  4 0.2                        1
 OLDACT:UP  25-05-12 19:15 OP:fm   STATUS:               ID:20070111032400     3
 GAP=232   RLP  0.54       3.2     5.9  5.7  0.1990E+00 -0.2243E+02  0.1095E+02E
 GAP=254   BER  0.45       9.0    17.2 14.3  0.1534E+03  0.2347E+03  0.1217E+03E
 ACTION:UPD 25-05-19 20:22 OP:fm   STATUS:               ID:20070111032400     I
 OLDACT:UP  25-04-28 23:31 OP:fm   STATUS:               ID:20070111032400     3
 OLDACT:UP  25-04-28 23:31 OP:fm   STATUS:               ID:20070111032400     3
 OLDACT:ARG 25-04-28 16:57 OP:fm   STATUS:               ID:20070111032400     3
 2007-01-11-0324-00S.RLPBA_036                                                 6
 STAT SP IPHASW D HRMM SECON CODA AMPLIT PERI AZIMU VELO AIN AR TRES W  DIS CAZ7
 BGG  SZ IP        324 45.07                             107   -0.0510 25.9 279 
 BGG  SE IS        324 48.19                             107   -0.2910 25.9 279 
 STB  SZ IP        324 53.60                              96    0.0810 77.0 308 
 STB  SN IS        325  2.96                              96   -0.1410 77.0 308 
 BLI  SZ IP        324 57.80                              95    0.3210  101 275 
 BLI  SE IS        325 10.18                              95    0.2010  101 275 
 PEB  SZ IP        325  0.70                              47    0.00 8  123 180 
 PEB  SN IS        325 15.43                              47   -0.15 8  123 180 
                                                                                
 2007  113 1757 54.3 L  50.048   7.388 10.9  RLP  4 0.1 1.2LRLP                1
 OLDACT:UP  25-05-12 19:17 OP:fm   STATUS:               ID:20070113175600     3
 GAP=155   RLP  0.37       1.8     2.6  3.2 -0.6253E+00 -0.4039E+01  0.4140E+01E
 GAP=157   BER  0.31       1.2     2.0  4.7 -0.2766E-01  0.4597E+01 -0.2620E+01E
 ACTION:UPD 25-05-19 20:22 OP:fm   STATUS:               ID:20070113175600     I
 OLDACT:UP  25-04-28 23:34 OP:fm   STATUS:               ID:20070113175600     3
 OLDACT:ARG 25-04-28 16:57 OP:fm   STATUS:               ID:20070113175600     3
 2007-01-13-1756-00S.RLPBA_033                                                 6
 STAT SP IPHASW D HRMM SECON CODA AMPLIT PERI AZIMU VELO AIN AR TRES W  DIS CAZ7
 BGG  SZ IP       1757 57.89                             121    0.1010 18.0 348 
 BGG  SN IS       1758  0.31                             121   -0.0910 18.0 348 
 BGG  SN  IAML    1758  0.88        58.0 0.09                          18.0 348 
 FSH  SZ IP       1757 58.30                             119    0.1510 20.2 279 
 FSH  SN IS       1758  0.93                             119   -0.0910 20.2 279 
 IMS  SZ IP       1758  4.88                             100   -0.0110 62.5 144 
 PEB  SZ IP       1758 12.63                              47   -0.06 9  111 169 
                                                                                
 2007  114 2210 53.7 L  50.169   7.708  5.6  RLP 10 0.3 2.0LRLP                1
 OLDACT:UP  25-05-12 19:20 OP:fm   STATUS:               ID:20070114221000     3
 GAP= 84   RLP  0.94       2.2     3.1  8.2 -0.2284E+00 -0.7123E+01  0.4250E+01E
 GAP=127   BER  0.64       2.3     3.0  7.6  0.3200E+01  0.1233E+02  0.9033E+01E
 ACTION:UPD 25-05-19 20:22 OP:fm   STATUS:               ID:20070114221000     I
 OLDACT:UP  25-04-28 23:36 OP:fm   STATUS:               ID:20070114221000     3
 OLDACT:ARG 25-04-28 16:57 OP:fm   STATUS:               ID:20070114221000     3
 2007-01-14-2210-00S.RLPBA_033                                                 6
 STAT SP IPHASW D HRMM SECON CODA AMPLIT PERI AZIMU VELO AIN AR TRES W  DIS CAZ7
 BGG  SZ IP       2210 58.67                             102    0.3510 26.8 279 
 BGG  SE IS       2211  1.79                             102    0.0810 26.8 279 
 BGG  SE  IAML    2211  1.96       298.0 0.12                          26.8 279 
 FACH SZ IP       2210 58.44                             101   -0.2710 29.1  44 
 FSH  SZ IP       2211  1.45                              97    0.2610 44.1 257 
 FSH  SE IS       2211  6.65                              97   -0.0510 44.1 257 
 TNS  HZ IP       2211  2.88                              96    0.1310 53.1  83 
 BIW  SZ IP       2211  4.11                              95   -0.2410 63.1   8 
 IMS  SZ IP       2211  5.29                              95    0.5410 65.5 168 
 IMS  SN IS       2211 12.85                              95   -0.0410 65.5 168 
 STB  SZ IP       2211  7.04                              94    0.2810 77.7 308 
 RIVT SZ IP       2211  7.12                              94   -0.8610 85.0 233 
 DUP  SZ IP       2211 11.40                              93   -0.2910  107 219 
 PEB  SZ IP       2211 14.27                              47    0.11 8  123 181 
                                                                                
 2007  411 1701  3.1 L  50.313   7.500 11.1  RLP  5 0.4 2.7LRLP                1
 OLDACT:UP  25-05-12 19:21 OP:fm   STATUS:               ID:20070411165800     3
 GAP=174   RLP  1.01       3.4     3.0  8.0 -0.2282E-02 -0.1993E+01 -0.4156E+01E
 GAP=174   BER  1.01       3.4     3.0  8.0 -0.1894E-02 -0.1991E+01 -0.4153E+01E
 ACTION:UPD 25-05-19 20:22 OP:fm   STATUS:               ID:20070411165800     I
 OLDACT:UP  25-04-28 23:40 OP:fm   STATUS:               ID:20070411165800     3
 OLDACT:ARG 25-04-28 16:57 OP:fm   STATUS:               ID:20070411165800     3
 2007-04-11-1658-00S.RLPBA_033                                                 6
 STAT SP IPHASW D HRMM SECON CODA AMPLIT PERI AZIMU VELO AIN AR TRES W  DIS CAZ7
 BGG  SZ IP       17 1  6.78                             124    0.3210 16.7 224 
 BGG  SN E        17 1  8.51                                           16.7 224 
 BGG  SN IS       17 1  9.01                             124    0.0710 16.7 224 
 BGG  SN  IAML    17 1  9.25      2128.4 0.12                          16.7 224 
 FACH SZ IP       17 1  9.64                             107    0.3310 35.5  82 
 FACH SE IS       17 1 13.53                             107   -0.3810 35.5  82 
 HIL  SZ IP       17 1 13.17                             101    0.0810 58.6 268 
 HIL  SE IS       17 1 20.20                             101   -0.2910 58.6 268 
 IMS  SZ IP       17 1 18.12                              97    0.6810 85.0 160 
 IMS  SN IS       17 1 27.49                              97   -0.5610 85.0 160 
 BLI  SZ IP       17 1 17.50                              97   -0.2610 86.9 265 
                                                                                
 2007  420 1629 58.6 L  50.359   7.464  3.8  RLP  6 0.4 2.4LRLP                1
 OLDACT:UP  25-05-12 19:24 OP:fm   STATUS:               ID:20070420162800     3
 GAP=132   RLP  1.00       3.4     3.3  9.8 -0.4259E+01  0.3238E+00 -0.4588E+01E
 GAP=142   BER  1.03      18.0    11.8 12.5 -0.2020E+03  0.1377E+03 -0.2133E+03E
 ACTION:UPD 25-05-19 20:22 OP:fm   STATUS:               ID:20070420162800     I
 OLDACT:UP  25-05-12 19:22 OP:fm   STATUS:               ID:20070420162800     3
 OLDACT:UP  25-04-28 23:44 OP:fm   STATUS:               ID:20070420162800     3
 OLDACT:ARG 25-04-28 16:57 OP:fm   STATUS:               ID:20070420162800     3
 2007-04-20-1628-00S.RLPBA_027                                                 6
 STAT SP IPHASW D HRMM SECON CODA AMPLIT PERI AZIMU VELO AIN AR TRES W  DIS CAZ7
 BGG  SZ IP       1630  2.24                             101    0.3510 19.2 208 
 BGG  SE IS       1630  4.50                             101    0.1810 19.2 208 
 BGG  SE  IAML    1630  4.68      1206.1 0.15                          19.2 208 
 FACH SZ IP       1630  5.11                              96    0.1710 37.7  90 
 FACH SE IS       1630  8.99                              96   -0.6410 37.7  90 
 BIW  SZ IP       1630  7.35                              94    0.4910 49.1  32 
 BLI  SZ IP       1630 12.93                              93    0.1010 85.0 261 
 BLI  SN IS       1630 22.72                              93   -0.6410 85.0 261 
 IMS  SZ IP       1630 13.72                              92   -0.0510 90.6 160 
 PEB  SZ IP       1630 21.96                              47    0.07 7  145 173 
                                                                                
