 2003  423 0318 47.0 L  49.740   8.319  0.1  RLP  3 0.5                        1
 OLDACT:UP  25-04-28 19:24 OP:fm   STATUS:               ID:20030423031747     3
 GAP=230   RLP  1.17       2.7    12.6 13.8 -0.4033E+01  0.9236E+02 -0.4120E+01E
 GAP=232   BER  1.36       3.3    17.4 17.6 -0.6494E+01  0.1950E+03 -0.6684E+01E
 ACTION:UPD 25-05-19 20:22 OP:fm   STATUS:               ID:20030423031747     I
 OLDACT:ARG 25-04-28 16:55 OP:fm   STATUS:               ID:20030423031747     3
 2003-04-23-0317-47S.RLPBA_033                                                 6
 STAT SP IPHASW D HRMM SECON CODA AMPLIT PERI AZIMU VELO AIN AR TRES W  DIS CAZ7
 FACH SZ IP        318 59.12                              56    0.0710 72.4 341 
 FACH SN IS        319  7.49                              56   -0.4910 72.4 341 
 PEB  SZ IP        319  1.68                              56    0.0610 87.7 212 
 PEB  SN IS        319 12.09                              56   -0.3710 87.7 212 
 FSH  SZ IP        319  3.67                              56    0.9010 94.6 294 
 FSH  SE IS        319 14.30                              56   -0.1710 94.6 294 
                                                                                
 2003  424 0422  3.5 L  50.351   7.406  8.1  RLP  5 0.5 1.7LRLP                1
 OLDACT:UP  25-05-12 15:51 OP:fm   STATUS:               ID:20030424042000     3
 GAP=135   RLP  1.35       5.1     5.4 19.9 -0.1919E+02  0.5217E+02 -0.7197E+02E
 GAP=179   BER  1.39       4.9     7.4 13.9 -0.2472E+02  0.3678E+01  0.1614E+01E
 ACTION:UPD 25-05-19 20:22 OP:fm   STATUS:               ID:20030424042000     I
 OLDACT:UP  25-05-12 15:49 OP:fm   STATUS:               ID:20030424042000     3
 OLDACT:UP  25-04-28 19:28 OP:fm   STATUS:               ID:20030424042000     3
 OLDACT:ARG 25-04-28 16:55 OP:fm   STATUS:               ID:20030424042000     3
 2003-04-24-0420-00S.RLPBA_042                                                 6
 STAT SP IPHASW D HRMM SECON CODA AMPLIT PERI AZIMU VELO AIN AR TRES W  DIS CAZ7
 BGG  SZ IP        422  7.14                             116    0.5510 16.8 197 
 BGG  SE IS        422  9.11                             116    0.2010 16.8 197 
 BGG  SE  IAML     422  9.24       243.9 0.13                          16.8 197 
 FSH  SZ IP        422 10.08                             102    0.2410 37.2 215 
 FSH  SE IS        422 14.12                             102   -0.4410 37.2 215 
 FACH SZ IP        422 10.78                             101    0.2110 41.8  89 
 FACH SE IS        422 15.03                             101   -0.8110 41.8  89 
 BIW  SZ IP        422 12.83                              99    0.5310 52.2  36 
 BIW  SN IS        422 18.70                              99   -0.1410 52.2  36 
 BLI  SZ IP        422 17.55                              96    0.5110 80.8 261 
 BLI  SN IS        422 26.24                              96   -0.8510 80.8 261 
                                                                                
 2003  6 1 0308 59.6 L  49.903   8.310 14.0  RLP  6 0.3 1.9LRLP                1
 OLDACT:UP  25-05-17 20:55 OP:fm   STATUS:               ID:20030601030754     3
 GAP=244   RLP  0.73       7.0     4.3  9.2 -0.6542E+01 -0.8310E+00  0.5660E+02E
 GAP=225   BER  0.67       1.8     5.8  6.9 -0.5415E+01  0.2083E+02 -0.4675E+01E
 ACTION:UPD 25-05-19 20:22 OP:fm   STATUS:               ID:20030601030754     I
 OLDACT:UP  25-05-12 15:57 OP:fm   STATUS:               ID:20030601030754     3
 OLDACT:UP  25-05-12 15:52 OP:fm   STATUS:               ID:20030601030754     3
 OLDACT:UP  25-04-28 19:32 OP:fm   STATUS:               ID:20030601030754     3
 OLDACT:ARG 25-04-28 16:55 OP:fm   STATUS:               ID:20030601030754     3
 2003-06-01-0307-54S.RLPBA_042                                                 6
 STAT SP IPHASW D HRMM SECON CODA AMPLIT PERI AZIMU VELO AIN AR TRES W  DIS CAZ7
 TNS  HZ IP        3 9  6.08                             111   -0.2210 36.8  15 
 TNS  HN IS        3 9 11.07                             111   -0.1610 36.8  15 
 FACH SZ IP        3 9  9.28                             104    0.1410 55.2 336 
 KOE  SZ IP        3 9 12.19                             101    0.4010 71.2 325 
 KOE  SN IS        3 9 20.94                             101    0.1510 71.2 325 
 BGG  SZ IP        3 9 13.07                              68    0.3310 77.4 296 
 BGG  SN IS        3 9 21.96                              68   -0.4910 77.4 296 
 BGG  SN  IAML     3 9 25.52        59.9 0.13                          77.4 296 
 FSH  SZ IP        3 9 14.42                              68   -0.0410 88.3 283 
 RIVT SZ IP        3 9 17.79                              47   -0.14 9  113 259 
                                                                                
 2003  7 3 0204 12.3 L  50.374   7.353 10.8  RLP  4 0.1 2.6LRLP                1
 OLDACT:UP  25-05-17 21:11 OP:fm   STATUS:               ID:20030703020337     3
 GAP=144   RLP  0.38       3.7     2.5  9.9  0.3231E+01 -0.7772E+01 -0.3408E+02E
 GAP=239   BER  0.63       2.9     6.6  7.9  0.1541E+02  0.3146E+02  0.1205E+02E
 ACTION:UPD 25-05-19 20:22 OP:fm   STATUS:               ID:20030703020337     I
 OLDACT:UP  25-05-12 16:02 OP:fm   STATUS:               ID:20030703020337     3
 OLDACT:UP  25-04-28 19:44 OP:fm   STATUS:               ID:20030703020337     3
 OLDACT:ARG 25-04-28 16:55 OP:fm   STATUS:               ID:20030703020337     3
 2003-07-03-0203-37S.RLPBA_039                                                 6
 STAT SP IPHASW D HRMM SECON CODA AMPLIT PERI AZIMU VELO AIN AR TRES W  DIS CAZ7
 BGG  SZ IP        2 4 16.12                             120    0.1610 18.7 183 
 BGG  SE IS        2 4 18.57                             120   -0.0710 18.7 183 
 BGG  SE  IAML     2 4 19.49      1590.6 0.14                          18.7 183 
 STB  SZ IP        2 4 19.92                             104    0.0310 43.8 304 
 HIL  SZ IP        2 4 20.66                             103   -0.0710 48.9 259 
 WBC  HZ IP        2 4 23.33                              99   -0.0410 65.2  88 
                                                                                
 2003  7 3 0206 48.4 L  50.435   7.297 10.6  RLP  5 0.2                        1
 OLDACT:UP  25-05-17 21:16 OP:fm   STATUS:               ID:20030703020640     3
 GAP=204   RLP  0.62       4.0     6.8 23.7 -0.2324E+02 -0.4215E+02  0.5061E+02E
 GAP=195   BER  1.20       4.6     7.7 12.4 -0.2576E+02 -0.2586E+02  0.1236E+02E
 ACTION:UPD 25-05-19 20:22 OP:fm   STATUS:               ID:20030703020640     I
 OLDACT:UP  25-05-12 16:04 OP:fm   STATUS:               ID:20030703020640     3
 OLDACT:UP  25-04-28 19:37 OP:fm   STATUS:               ID:20030703020640     3
 OLDACT:ARG 25-04-28 16:55 OP:fm   STATUS:               ID:20030703020640     3
 2003-07-03-0206-40S.RLPBA_024                                                 6
 STAT SP IPHASW D HRMM SECON CODA AMPLIT PERI AZIMU VELO AIN AR TRES W  DIS CAZ7
 FSH  SZ IP        2 6 55.88                             104    0.1710 42.0 199 
 FACH SZ IP        2 6 57.01                             102   -0.0210 50.3 100 
 BIW  SZ IP        2 6 57.43                             102    0.3410 50.5  49 
 BIW  SN IS        2 7  3.25                             102   -0.2310 50.5  49 
 RIVT SZ IP        2 7  3.12                              97   -0.3610 89.4 205 
 RIVT SE IS        2 7 14.68                              97    0.0710 89.4 205 
 IMS  SZ IP        2 7  5.78                              96    0.0310  103 155 
                                                                                
 2003  7 9 0016  6.6 L  50.402   7.362  8.6  RLP  4 0.3 2.0LRLP                1
 OLDACT:UP  25-05-12 16:05 OP:fm   STATUS:               ID:20030709001400     3
 GAP=218   RLP  0.71       2.0     5.6  8.4 -0.7487E+01  0.3594E+01 -0.2325E+01E
 GAP=218   BER  0.71       2.0     5.6  8.4 -0.7485E+01  0.3591E+01 -0.2325E+01E
 ACTION:UPD 25-05-19 20:22 OP:fm   STATUS:               ID:20030709001400     I
 OLDACT:UP  25-04-28 19:47 OP:fm   STATUS:               ID:20030709001400     3
 OLDACT:UP  25-04-28 19:47 OP:fm   STATUS:               ID:20030709001400     3
 OLDACT:ARG 25-04-28 16:55 OP:fm   STATUS:               ID:20030709001400     3
 2003-07-09-0014-00S.RLPBA_042                                                 6
 STAT SP IPHASW D HRMM SECON CODA AMPLIT PERI AZIMU VELO AIN AR TRES W  DIS CAZ7
 BGG  SZ IP        016 10.80                             112    0.2410 21.9 185 
 BGG  SN IS        016 13.27                             112   -0.2110 21.9 185 
 BGG  SN  IAML     016 14.02       318.6 0.13                          21.9 185 
 KOE  SZ IP        016 11.77                             109    0.4510 26.4  84 
 KOE  SN IS        016 14.88                             109    0.0910 26.4  84 
 BIW  SZ IP        016 15.12                             100    0.0510 49.7  43 
 BIW  SN IS        016 20.90                             100   -0.4210 49.7  43 
 IMS  SZ IP        016 23.02                              95   -0.0210 97.9 157 
 IMS  SE IS        016 35.01                              95   -0.1810 97.9 157 
                                                                                
 2003  712 2048 25.3 L  50.438   7.625  6.1  RLP  3 0.1 0.2LRLP                1
 OLDACT:UP  25-05-12 16:06 OP:fm   STATUS:               ID:20030712204800     3
 GAP=242   RLP  0.37       2.5     2.4  4.1 -0.8050E+00  0.4268E+01  0.6101E+01E
 GAP=242   BER  0.37       2.5     2.4  4.1 -0.8050E+00  0.4267E+01  0.6100E+01E
 ACTION:UPD 25-05-19 20:22 OP:fm   STATUS:               ID:20030712204800     I
 OLDACT:UP  25-04-28 19:49 OP:fm   STATUS:               ID:20030712204800     3
 OLDACT:ARG 25-04-28 16:55 OP:fm   STATUS:               ID:20030712204800     3
 2003-07-12-2048-00S.RLPBA_036                                                 6
 STAT SP IPHASW D HRMM SECON CODA AMPLIT PERI AZIMU VELO AIN AR TRES W  DIS CAZ7
 KOE  SZ IP       2048 26.96                             130   -0.0410 7.71 101 
 KOE  SN IS       2048 28.30                             130    0.0210 7.71 101 
 KOE  SN  IAML    2048 28.69        17.8 0.19                          7.71 101 
 BGG  SZ IP       2048 31.04                             101    0.1610 33.0 219 
 BGG  SE IS       2048 34.94                             101   -0.0910 33.0 219 
 IMS  SZ IP       2048 41.23                              94   -0.1210 95.9 168 
 IMS  SE IS       2048 53.31                              94    0.0710 95.9 168 
                                                                                
 2003  721 0331 51.1 L  50.446   7.654  9.0  RLP  4 0.3 1.5LRLP                1
 OLDACT:UP  25-05-12 16:08 OP:fm   STATUS:               ID:20030721033000     3
 GAP=162   RLP  0.75       2.1     3.7  4.8 -0.3249E+01  0.7390E+01 -0.2792E+01E
 GAP=162   BER  0.60       1.6     2.7  6.0 -0.1625E+01 -0.1743E+01  0.6159E+00E
 ACTION:UPD 25-05-19 20:22 OP:fm   STATUS:               ID:20030721033000     I
 OLDACT:UP  25-04-28 19:51 OP:fm   STATUS:               ID:20030721033000     3
 OLDACT:ARG 25-04-28 16:55 OP:fm   STATUS:               ID:20030721033000     3
 2003-07-21-0330-00S.RLPBA_039                                                 6
 STAT SP IPHASW D HRMM SECON CODA AMPLIT PERI AZIMU VELO AIN AR TRES W  DIS CAZ7
 KOE  SN IS        331 54.54                             147    0.1610 5.99 112 
 FACH SZ IP        331 55.94                             109    0.2310 26.1 112 
 FACH SE IS        331 58.86                             109   -0.2810 26.1 112 
 BIW  SZ IP        331 57.36                             105    0.3310 34.3  22 
 BIW  SN IS        332  1.08                             105   -0.3510 34.3  22 
 BGG  SZ IP        331 57.34                             104    0.2210 34.9 220 
 BGG  SE IS        332  1.27                             104   -0.3010 34.9 220 
 BGG  SE  IAML     332  3.06        64.0 0.12                          34.9 220 
                                                                                
 2003  726 0743 38.2 L  50.373   7.367 10.3  RLP  3 0.4 1.7LRLP                1
 OLDACT:UP  25-05-12 16:09 OP:fm   STATUS:               ID:20030726074200     3
 GAP=243   RLP  1.10       4.0    14.0 12.5  0.3678E+02  0.6593E+02  0.2620E+01E
 GAP=243   BER  1.10       4.0    14.0 12.5  0.3678E+02  0.6594E+02  0.2621E+01E
 ACTION:UPD 25-05-19 20:22 OP:fm   STATUS:               ID:20030726074200     I
 OLDACT:UP  25-04-28 19:58 OP:fm   STATUS:               ID:20030726074200     3
 OLDACT:ARG 25-04-28 16:55 OP:fm   STATUS:               ID:20030726074200     3
 2003-07-26-0742-00S.RLPBA_042                                                 6
 STAT SP IPHASW D HRMM SECON CODA AMPLIT PERI AZIMU VELO AIN AR TRES W  DIS CAZ7
 BGG  SZ IP        743 42.00                             119    0.2110 18.7 186 
 BGG  SE IS        743 44.32                             119   -0.1210 18.7 186 
 BGG  SE  IAML     743 45.10       198.9 0.11                          18.7 186 
 STB  SZ IP        743 46.40                             103    0.5110 44.7 304 
 STB  SN IS        743 51.29                             103   -0.2910 44.7 304 
 RIVT SZ IP        743 51.92                              97   -0.7110 85.7 210 
 RIVT SE IS        744  3.72                              97    0.4110 85.7 210 
                                                                                
 2003  727 1549 43.0 L  50.379   7.331  9.7  RLP  4 0.3 1.7LRLP                1
 OLDACT:UP  25-05-12 16:12 OP:fm   STATUS:               ID:20030727154800     3
 GAP=148   RLP  0.81       2.7     4.5 12.7  0.5400E+01 -0.1624E+02 -0.2184E+02E
 GAP=213   BER  0.37       1.5     4.0  4.2  0.4844E+01  0.7197E+01  0.2601E+01E
 ACTION:UPD 25-05-19 20:22 OP:fm   STATUS:               ID:20030727154800     I
 OLDACT:UP  25-04-28 20:00 OP:fm   STATUS:               ID:20030727154800     3
 OLDACT:ARG 25-04-28 16:55 OP:fm   STATUS:               ID:20030727154800     3
 2003-07-27-1548-00S.RLPBA_042                                                 6
 STAT SP IPHASW D HRMM SECON CODA AMPLIT PERI AZIMU VELO AIN AR TRES W  DIS CAZ7
 BGG  SZ IP       1549 46.89                             117    0.2810 19.3 179 
 BGG  SN IS       1549 49.39                             117    0.1110 19.3 179 
 BGG  SN  IAML    1549 50.30       187.1 0.12                          19.3 179 
 FSH  SZ IP       1549 49.63                             105    0.1810 37.2 205 
 FSH  SE IS       1549 53.83                             105   -0.4010 37.2 205 
 STB  SZ IP       1549 50.68                             103    0.4310 42.2 305 
 STB  SN IS       1549 55.33                             103   -0.2910 42.2 305 
 FACH SZ IP       1549 50.75                             102   -0.3010 47.2  93 
                                                                                
 2003  727 1557 14.1 L  50.399   7.380  6.6  RLP  4 0.5 1.4LRLP                1
 OLDACT:UP  25-05-12 16:16 OP:fm   STATUS:               ID:20030727155552     3
 GAP=147   RLP  1.23       3.1     5.4 28.6 -0.4794E+01  0.1523E+02 -0.5236E+02E
 GAP=208   BER  0.99       5.3    14.3 11.3 -0.6877E+02 -0.7580E+02  0.2850E+02E
 ACTION:UPD 25-05-19 20:22 OP:fm   STATUS:               ID:20030727155552     I
 OLDACT:UP  25-04-28 20:04 OP:fm   STATUS:               ID:20030727155552     3
 OLDACT:ARG 25-04-28 16:55 OP:fm   STATUS:               ID:20030727155552     3
 2003-07-27-1555-52S.RLPBA_042                                                 6
 STAT SP IPHASW D HRMM SECON CODA AMPLIT PERI AZIMU VELO AIN AR TRES W  DIS CAZ7
 BGG  SZ IP       1557 18.35                             107    0.4310 21.7 188 
 BGG  SN IS       1557 21.07                             107    0.3410 21.7 188 
 BGG  SN  IAML    1557 21.76        88.4 0.12                          21.7 188 
 FSH  SZ IP       1557 21.06                              99    0.0110 40.8 208 
 FSH  SE IS       1557 25.29                              99   -0.8810 40.8 208 
 STB  SZ IP       1557 22.18                              99    0.6110 44.0 300 
 STB  SN IS       1557 26.85                              99   -0.2310 44.0 300 
 BIW  SZ IP       1557 22.62                              98    0.1910 49.1  41 
 BIW  SE IS       1557 28.11                              98   -0.4610 49.1  41 
                                                                                
 2003  926 0752 10.0 L  49.941   7.874 15.5  RLP  5 0.2 1.7LRLP                1
 OLDACT:UP  25-05-17 22:05 OP:fm   STATUS:               ID:20030926075145     3
 GAP=167   RLP  0.65       2.7     5.0  6.3  0.5153E+01  0.8026E+01  0.7716E+01E
 GAP=167   BER  0.64       1.4     3.4  6.5  0.1960E+00  0.2730E+01 -0.1756E+00E
 ACTION:UPD 25-05-19 20:22 OP:fm   STATUS:               ID:20030926075145     I
 OLDACT:UP  25-05-12 16:19 OP:fm   STATUS:               ID:20030926075145     3
 OLDACT:UP  25-04-28 20:07 OP:fm   STATUS:               ID:20030926075145     3
 OLDACT:ARG 25-04-28 16:55 OP:fm   STATUS:               ID:20030926075145     3
 2003-09-26-0751-45S.RLPBA_039                                                 6
 STAT SP IPHASW D HRMM SECON CODA AMPLIT PERI AZIMU VELO AIN AR TRES W  DIS CAZ7
 IMS  SZ IP        752 16.89                             112   -0.0910 38.6 177 
 FACH SZ IP        752 18.19                             108   -0.0710 47.0  10 
 BGG  SZ IP        752 18.78                             108    0.2910 48.4 308 
 BGG  SE IS        752 24.46                             108   -0.3110 48.4 308 
 BGG  SE  IAML     752 25.37        65.6 0.17                          48.4 308 
 FSH  SZ IP        752 20.19                             105    0.3310 56.9 286 
 RIVT SZ IP        752 23.91                              68   -0.1510 84.0 252 
                                                                                
 2003 10 9 0211 15.9 L  50.364   7.342 10.3  RLP  4 0.4 1.9LRLP                1
 OLDACT:UP  25-05-12 16:23 OP:fm   STATUS:               ID:20031009021000     3
 GAP=145   RLP  0.94       3.2     5.2 12.9  0.6292E+01 -0.1633E+02 -0.2652E+02E
 GAP=261   BER  0.42       4.0     4.2  6.7  0.1422E+02  0.2022E+02  0.2085E+02E
 ACTION:UPD 25-05-19 20:22 OP:fm   STATUS:               ID:20031009021000     I
 OLDACT:UP  25-04-28 20:30 OP:fm   STATUS:               ID:20031009021000     3
 OLDACT:ARG 25-04-28 16:55 OP:fm   STATUS:               ID:20031009021000     3
 2003-10-09-0210-00S.RLPBA_042                                                 6
 STAT SP IPHASW D HRMM SECON CODA AMPLIT PERI AZIMU VELO AIN AR TRES W  DIS CAZ7
 BGG  SZ IP        211 19.63                             121    0.3110 17.5 181 
 BGG  SE IS        211 21.96                             121    0.1210 17.5 181 
 BGG  SE  IAML     211 22.86       348.4 0.11                          17.5 181 
 FSH  SZ IP        211 22.43                             106    0.2310 36.1 208 
 FSH  SN IS        211 26.39                             106   -0.4710 36.1 208 
 STB  SZ IP        211 23.96                             103    0.5010 43.9 306 
 STB  SN IS        211 28.69                             103   -0.3510 43.9 306 
 FACH SZ IP        211 23.50                             103   -0.3410 46.4  91 
                                                                                
